{
  "type": "FeatureCollection",
  "name": "arrow_straight_3m",
  "crs": {
    "type": "name",
    "properties": {
      "name": "urn:ogc:def:crs:OGC:1.3:CRS84"
    }
  },
  "features": [
    {
      "type": "Feature",
      "id": 1,
      "properties": {
        "fid": 1,
        "arrow_id": "straight",
        "name_cn": "直行",
        "standard": "GB 5768.3-2025",
        "standard_figure": "图42（导向箭头一/线30）",
        "speed_class": "设计速度≤40 km/h",
        "nominal_length_m": 3.0,
        "area_m2": 0.54,
        "coordinate_unit": "metre",
        "origin_note": "尾杆底边中心为(0,0)，+Y为箭头前进方向；预览层另有X方向排布偏移。",
        "layout_offset_x_m": 0.0,
        "source_image_no": 3,
        "id": "ARS-001",
        "type": "arrow_straight"
      },
      "geometry": {
        "type": "Polygon",
        "coordinates": [
          [
            [
              121.41868736387477,
              28.656020076086683
            ],
            [
              121.4186901195247,
              28.656019564575033
            ],
            [
              121.4186970783285,
              28.656048732638755
            ],
            [
              121.41869983397916,
              28.65604822112694
            ],
            [
              121.41870033970739,
              28.65606843377029
            ],
            [
              121.41869156702712,
              28.656049755662202
            ],
            [
              121.41869432267784,
              28.65604924415051
            ],
            [
              121.41868736387477,
              28.656020076086683
            ]
          ]
        ]
      }
    },
    {
      "type": "Feature",
      "id": 2,
      "properties": {
        "fid": 2,
        "arrow_id": "straight",
        "name_cn": "直行",
        "standard": "GB 5768.3-2025",
        "standard_figure": "图42（导向箭头一/线30）",
        "speed_class": "设计速度≤40 km/h",
        "nominal_length_m": 3.0,
        "area_m2": 0.54,
        "coordinate_unit": "metre",
        "origin_note": "尾杆底边中心为(0,0)，+Y为箭头前进方向；预览层另有X方向排布偏移。",
        "layout_offset_x_m": 0.0,
        "source_image_no": 3,
        "id": "ARS-002",
        "type": "arrow_straight"
      },
      "geometry": {
        "type": "Polygon",
        "coordinates": [
          [
            [
              121.41871826669288,
              28.65601446968536
            ],
            [
              121.41872102234255,
              28.656013958173073
            ],
            [
              121.4187279811547,
              28.656043126235556
            ],
            [
              121.4187307368051,
              28.656042614723102
            ],
            [
              121.4187312425393,
              28.656062827366586
            ],
            [
              121.41872246985386,
              28.656044149260293
            ],
            [
              121.4187252255043,
              28.65604363774795
            ],
            [
              121.41871826669288,
              28.65601446968536
            ]
          ]
        ]
      }
    },
    {
      "type": "Feature",
      "id": 3,
      "properties": {
        "fid": 3,
        "arrow_id": "straight",
        "name_cn": "直行",
        "standard": "GB 5768.3-2025",
        "standard_figure": "图42（导向箭头一/线30）",
        "speed_class": "设计速度≤40 km/h",
        "nominal_length_m": 3.0,
        "area_m2": 0.54,
        "coordinate_unit": "metre",
        "origin_note": "尾杆底边中心为(0,0)，+Y为箭头前进方向；预览层另有X方向排布偏移。",
        "layout_offset_x_m": 0.0,
        "source_image_no": 3,
        "id": "ARS-003",
        "type": "arrow_straight"
      },
      "geometry": {
        "type": "Polygon",
        "coordinates": [
          [
            [
              121.41886128898271,
              28.65660939799707
            ],
            [
              121.41886405703467,
              28.65660894147586
            ],
            [
              121.41887026776251,
              28.656638240646434
            ],
            [
              121.41887303581521,
              28.656637784125067
            ],
            [
              121.41887302422285,
              28.656658001687344
            ],
            [
              121.41886473165707,
              28.656639153689
            ],
            [
              121.4188674997098,
              28.656638697167732
            ],
            [
              121.41886128898271,
              28.65660939799707
            ]
          ]
        ]
      }
    },
    {
      "type": "Feature",
      "id": 4,
      "properties": {
        "fid": 4,
        "arrow_id": "straight",
        "name_cn": "直行",
        "standard": "GB 5768.3-2025",
        "standard_figure": "图42（导向箭头一/线30）",
        "speed_class": "设计速度≤40 km/h",
        "nominal_length_m": 3.0,
        "area_m2": 0.54,
        "coordinate_unit": "metre",
        "origin_note": "尾杆底边中心为(0,0)，+Y为箭头前进方向；预览层另有X方向排布偏移。",
        "layout_offset_x_m": 0.0,
        "source_image_no": 3,
        "id": "ARS-004",
        "type": "arrow_straight"
      },
      "geometry": {
        "type": "Polygon",
        "coordinates": [
          [
            [
              121.4190732162993,
              28.65633988268802
            ],
            [
              121.419073894566,
              28.656342293471663
            ],
            [
              121.41904109723177,
              28.656349472777794
            ],
            [
              121.41904177549779,
              28.656351883561566
            ],
            [
              121.41901889320727,
              28.65635305358545
            ],
            [
              121.41903974069983,
              28.656344651210265
            ],
            [
              121.41904041896579,
              28.65634706199403
            ],
            [
              121.4190732162993,
              28.65633988268802
            ]
          ]
        ]
      }
    },
    {
      "type": "Feature",
      "id": 5,
      "properties": {
        "fid": 5,
        "arrow_id": "straight",
        "name_cn": "直行",
        "standard": "GB 5768.3-2025",
        "standard_figure": "图42（导向箭头一/线30）",
        "speed_class": "设计速度≤40 km/h",
        "nominal_length_m": 3.0,
        "area_m2": 0.54,
        "coordinate_unit": "metre",
        "origin_note": "尾杆底边中心为(0,0)，+Y为箭头前进方向；预览层另有X方向排布偏移。",
        "layout_offset_x_m": 0.0,
        "source_image_no": 3,
        "id": "ARS-005",
        "type": "arrow_straight"
      },
      "geometry": {
        "type": "Polygon",
        "coordinates": [
          [
            [
              121.41907730779826,
              28.65636777766773
            ],
            [
              121.41907798606522,
              28.65637018845134
            ],
            [
              121.41904518872244,
              28.656377367758115
            ],
            [
              121.4190458669887,
              28.65637977854187
            ],
            [
              121.4190229846921,
              28.656380948566202
            ],
            [
              121.41904383219,
              28.656372546190624
            ],
            [
              121.4190445104562,
              28.656374956974368
            ],
            [
              121.41907730779826,
              28.65636777766773
            ]
          ]
        ]
      }
    },
    {
      "type": "Feature",
      "id": 6,
      "properties": {
        "fid": 6,
        "arrow_id": "straight",
        "name_cn": "直行",
        "standard": "GB 5768.3-2025",
        "standard_figure": "图42（导向箭头一/线30）",
        "speed_class": "设计速度≤40 km/h",
        "nominal_length_m": 3.0,
        "area_m2": 0.54,
        "coordinate_unit": "metre",
        "origin_note": "尾杆底边中心为(0,0)，+Y为箭头前进方向；预览层另有X方向排布偏移。",
        "layout_offset_x_m": 0.0,
        "source_image_no": 3,
        "id": "ARS-006",
        "type": "arrow_straight"
      },
      "geometry": {
        "type": "Polygon",
        "coordinates": [
          [
            [
              121.41908447511258,
              28.656391067353624
            ],
            [
              121.41908515337983,
              28.65639347813721
            ],
            [
              121.41905235603011,
              28.65640065744543
            ],
            [
              121.41905303429665,
              28.65640306822914
            ],
            [
              121.41903015199502,
              28.65640423825449
            ],
            [
              121.4190509994971,
              28.656395835877987
            ],
            [
              121.41905167776359,
              28.65639824666171
            ],
            [
              121.41908447511258,
              28.656391067353624
            ]
          ]
        ]
      }
    },
    {
      "type": "Feature",
      "id": 7,
      "properties": {
        "fid": 7,
        "arrow_id": "straight",
        "name_cn": "直行",
        "standard": "GB 5768.3-2025",
        "standard_figure": "图42（导向箭头一/线30）",
        "speed_class": "设计速度≤40 km/h",
        "nominal_length_m": 3.0,
        "area_m2": 0.54,
        "coordinate_unit": "metre",
        "origin_note": "尾杆底边中心为(0,0)，+Y为箭头前进方向；预览层另有X方向排布偏移。",
        "layout_offset_x_m": 0.0,
        "source_image_no": 3,
        "id": "ARS-007",
        "type": "arrow_straight"
      },
      "geometry": {
        "type": "Polygon",
        "coordinates": [
          [
            [
              121.41875393258307,
              28.656689989780897
            ],
            [
              121.41875117481766,
              28.656690492418942
            ],
            [
              121.41874433669385,
              28.656661302151385
            ],
            [
              121.41874157892914,
              28.656661804789263
            ],
            [
              121.41874115682862,
              28.65664159065394
            ],
            [
              121.41874985222316,
              28.65666029687548
            ],
            [
              121.41874709445851,
              28.656660799513464
            ],
            [
              121.41875393258307,
              28.656689989780897
            ]
          ]
        ]
      }
    },
    {
      "type": "Feature",
      "id": 8,
      "properties": {
        "fid": 8,
        "arrow_id": "straight",
        "name_cn": "直行",
        "standard": "GB 5768.3-2025",
        "standard_figure": "图42（导向箭头一/线30）",
        "speed_class": "设计速度≤40 km/h",
        "nominal_length_m": 3.0,
        "area_m2": 0.54,
        "coordinate_unit": "metre",
        "origin_note": "尾杆底边中心为(0,0)，+Y为箭头前进方向；预览层另有X方向排布偏移。",
        "layout_offset_x_m": 0.0,
        "source_image_no": 3,
        "id": "ARS-008",
        "type": "arrow_straight"
      },
      "geometry": {
        "type": "Polygon",
        "coordinates": [
          [
            [
              121.41872524938796,
              28.65669794270423
            ],
            [
              121.41872249162222,
              28.656698445341682
            ],
            [
              121.41871565350603,
              28.656669255073
            ],
            [
              121.41871289574102,
              28.65666975771027
            ],
            [
              121.41871247364604,
              28.6566495435751
            ],
            [
              121.41872116903598,
              28.656668249798294
            ],
            [
              121.41871841127102,
              28.656668752435674
            ],
            [
              121.41872524938796,
              28.65669794270423
            ]
          ]
        ]
      }
    },
    {
      "type": "Feature",
      "id": 9,
      "properties": {
        "fid": 9,
        "arrow_id": "straight",
        "name_cn": "直行",
        "standard": "GB 5768.3-2025",
        "standard_figure": "图42（导向箭头一/线30）",
        "speed_class": "设计速度≤40 km/h",
        "nominal_length_m": 3.0,
        "area_m2": 0.54,
        "coordinate_unit": "metre",
        "origin_note": "尾杆底边中心为(0,0)，+Y为箭头前进方向；预览层另有X方向排布偏移。",
        "layout_offset_x_m": 0.0,
        "source_image_no": 3,
        "id": "ARS-009",
        "type": "arrow_straight"
      },
      "geometry": {
        "type": "Polygon",
        "coordinates": [
          [
            [
              121.41857757148306,
              28.65609518255117
            ],
            [
              121.4185748137327,
              28.656095685186248
            ],
            [
              121.41856797568852,
              28.65606649491075
            ],
            [
              121.41856521793888,
              28.65606699754565
            ],
            [
              121.41856479586885,
              28.65604678340949
            ],
            [
              121.41857349118771,
              28.65606548964078
            ],
            [
              121.41857073343813,
              28.65606599227581
            ],
            [
              121.41857757148306,
              28.65609518255117
            ]
          ]
        ]
      }
    },
    {
      "type": "Feature",
      "id": 10,
      "properties": {
        "fid": 10,
        "arrow_id": "straight",
        "name_cn": "直行",
        "standard": "GB 5768.3-2025",
        "standard_figure": "图42（导向箭头一/线30）",
        "speed_class": "设计速度≤40 km/h",
        "nominal_length_m": 3.0,
        "area_m2": 0.54,
        "coordinate_unit": "metre",
        "origin_note": "尾杆底边中心为(0,0)，+Y为箭头前进方向；预览层另有X方向排布偏移。",
        "layout_offset_x_m": 0.0,
        "source_image_no": 3,
        "id": "ARS-010",
        "type": "arrow_straight"
      },
      "geometry": {
        "type": "Polygon",
        "coordinates": [
          [
            [
              121.41861035318743,
              28.656089598117237
            ],
            [
              121.41860759543734,
              28.656090100752984
            ],
            [
              121.41860075738428,
              28.65606091047878
            ],
            [
              121.41859799963491,
              28.65606141311437
            ],
            [
              121.41859757755854,
              28.656041198978052
            ],
            [
              121.41860627288293,
              28.656059905207453
            ],
            [
              121.41860351513361,
              28.656060407843153
            ],
            [
              121.41861035318743,
              28.656089598117237
            ]
          ]
        ]
      }
    },
    {
      "type": "Feature",
      "id": 11,
      "properties": {
        "fid": 11,
        "arrow_id": "straight",
        "name_cn": "直行",
        "standard": "GB 5768.3-2025",
        "standard_figure": "图42（导向箭头一/线30）",
        "speed_class": "设计速度≤40 km/h",
        "nominal_length_m": 3.0,
        "area_m2": 0.54,
        "coordinate_unit": "metre",
        "origin_note": "尾杆底边中心为(0,0)，+Y为箭头前进方向；预览层另有X方向排布偏移。",
        "layout_offset_x_m": 0.0,
        "source_image_no": 3,
        "id": "ARS-011",
        "type": "arrow_straight"
      },
      "geometry": {
        "type": "Polygon",
        "coordinates": [
          [
            [
              121.41849417404005,
              28.65650541024797
            ],
            [
              121.41849485229423,
              28.65650782103397
            ],
            [
              121.4184620548755,
              28.656515000196077
            ],
            [
              121.41846273312899,
              28.65651741098221
            ],
            [
              121.41843985080092,
              28.656518580906514
            ],
            [
              121.4184606983686,
              28.656510178623794
            ],
            [
              121.41846137662205,
              28.656512589409946
            ],
            [
              121.41849417404005,
              28.65650541024797
            ]
          ]
        ]
      }
    },
    {
      "type": "Feature",
      "id": 12,
      "properties": {
        "fid": 12,
        "arrow_id": "straight",
        "name_cn": "直行",
        "standard": "GB 5768.3-2025",
        "standard_figure": "图42（导向箭头一/线30）",
        "speed_class": "设计速度≤40 km/h",
        "nominal_length_m": 3.0,
        "area_m2": 0.54,
        "coordinate_unit": "metre",
        "origin_note": "尾杆底边中心为(0,0)，+Y为箭头前进方向；预览层另有X方向排布偏移。",
        "layout_offset_x_m": 0.0,
        "source_image_no": 3,
        "id": "ARS-012",
        "type": "arrow_straight"
      },
      "geometry": {
        "type": "Polygon",
        "coordinates": [
          [
            [
              121.41847503621597,
              28.656449792347075
            ],
            [
              121.41847571446941,
              28.656452203133156
            ],
            [
              121.41844291706713,
              28.656459382291317
            ],
            [
              121.41844359531987,
              28.656461793077526
            ],
            [
              121.41842071300387,
              28.656462962999075
            ],
            [
              121.4184415605617,
              28.656454560718874
            ],
            [
              121.41844223881441,
              28.656456971505097
            ],
            [
              121.41847503621597,
              28.656449792347075
            ]
          ]
        ]
      }
    },
    {
      "type": "Feature",
      "id": 13,
      "properties": {
        "fid": 13,
        "arrow_id": "straight",
        "name_cn": "直行",
        "standard": "GB 5768.3-2025",
        "standard_figure": "图42（导向箭头一/线30）",
        "speed_class": "设计速度≤40 km/h",
        "nominal_length_m": 3.0,
        "area_m2": 0.54,
        "coordinate_unit": "metre",
        "origin_note": "尾杆底边中心为(0,0)，+Y为箭头前进方向；预览层另有X方向排布偏移。",
        "layout_offset_x_m": 0.0,
        "source_image_no": 3,
        "id": "ARS-013",
        "type": "arrow_straight"
      },
      "geometry": {
        "type": "Polygon",
        "coordinates": [
          [
            [
              121.41848177787278,
              28.65647639223374
            ],
            [
              121.41848245612653,
              28.656478803019787
            ],
            [
              121.41844965871624,
              28.656485982179248
            ],
            [
              121.41845033696929,
              28.65648839296543
            ],
            [
              121.41842745464751,
              28.65648956288789
            ],
            [
              121.41844830221022,
              28.65648116060687
            ],
            [
              121.41844898046322,
              28.656483571393064
            ],
            [
              121.41848177787278,
              28.65647639223374
            ]
          ]
        ]
      }
    },
    {
      "type": "Feature",
      "id": 14,
      "properties": {
        "fid": 14,
        "arrow_id": "straight",
        "name_cn": "直行",
        "standard": "GB 5768.3-2025",
        "standard_figure": "图42（导向箭头一/线30）",
        "speed_class": "设计速度≤40 km/h",
        "nominal_length_m": 3.0,
        "area_m2": 0.54,
        "coordinate_unit": "metre",
        "origin_note": "尾杆底边中心为(0,0)，+Y为箭头前进方向；预览层另有X方向排布偏移。",
        "layout_offset_x_m": 0.0,
        "source_image_no": 3,
        "id": "ARS-014",
        "type": "arrow_straight"
      },
      "geometry": {
        "type": "Polygon",
        "coordinates": [
          [
            [
              121.41898189374412,
              28.65619922587613
            ],
            [
              121.41898124711594,
              28.656196808338056
            ],
            [
              121.41901413629037,
              28.656189963901642
            ],
            [
              121.4190134896615,
              28.656187546363697
            ],
            [
              121.41903638571917,
              28.656186609708435
            ],
            [
              121.41901542954821,
              28.65619479897753
            ],
            [
              121.41901478291928,
              28.656192381439585
            ],
            [
              121.41898189374412,
              28.65619922587613
            ]
          ]
        ]
      }
    },
    {
      "type": "Feature",
      "id": 15,
      "properties": {
        "fid": 15,
        "arrow_id": "straight",
        "name_cn": "直行",
        "standard": "GB 5768.3-2025",
        "standard_figure": "图42（导向箭头一/线30）",
        "speed_class": "设计速度≤40 km/h",
        "nominal_length_m": 3.0,
        "area_m2": 0.54,
        "coordinate_unit": "metre",
        "origin_note": "尾杆底边中心为(0,0)，+Y为箭头前进方向；预览层另有X方向排布偏移。",
        "layout_offset_x_m": 0.0,
        "source_image_no": 3,
        "id": "ARS-015",
        "type": "arrow_straight"
      },
      "geometry": {
        "type": "Polygon",
        "coordinates": [
          [
            [
              121.41883143372628,
              28.65662032088833
            ],
            [
              121.41883420177862,
              28.656619864367745
            ],
            [
              121.41884041249858,
              28.656649163539342
            ],
            [
              121.41884318055168,
              28.656648707018604
            ],
            [
              121.41884316895347,
              28.65666892458063
            ],
            [
              121.41883487639237,
              28.656650076580668
            ],
            [
              121.41883764444549,
              28.656649620060023
            ],
            [
              121.41883143372628,
              28.65662032088833
            ]
          ]
        ]
      }
    },
    {
      "type": "Feature",
      "id": 16,
      "properties": {
        "fid": 16,
        "arrow_id": "straight",
        "name_cn": "直行",
        "standard": "GB 5768.3-2025",
        "standard_figure": "图42（导向箭头一/线30）",
        "speed_class": "设计速度≤40 km/h",
        "nominal_length_m": 3.0,
        "area_m2": 0.54,
        "coordinate_unit": "metre",
        "origin_note": "尾杆底边中心为(0,0)，+Y为箭头前进方向；预览层另有X方向排布偏移。",
        "layout_offset_x_m": 0.0,
        "source_image_no": 3,
        "id": "ARS-016",
        "type": "arrow_straight"
      },
      "geometry": {
        "type": "Polygon",
        "coordinates": [
          [
            [
              121.41898897149966,
              28.656228481781078
            ],
            [
              121.41898832487118,
              28.656226064243043
            ],
            [
              121.41902121405447,
              28.65621921980528
            ],
            [
              121.41902056742528,
              28.656216802267366
            ],
            [
              121.41904346348933,
              28.65621586561114
            ],
            [
              121.41902250731293,
              28.656224054881093
            ],
            [
              121.41902186068367,
              28.656221637343183
            ],
            [
              121.41898897149966,
              28.656228481781078
            ]
          ]
        ]
      }
    },
    {
      "type": "Feature",
      "id": 17,
      "properties": {
        "fid": 17,
        "arrow_id": "straight",
        "name_cn": "直行",
        "standard": "GB 5768.3-2025",
        "standard_figure": "图42（导向箭头一/线30）",
        "speed_class": "设计速度≤40 km/h",
        "nominal_length_m": 3.0,
        "area_m2": 0.54,
        "coordinate_unit": "metre",
        "origin_note": "尾杆底边中心为(0,0)，+Y为箭头前进方向；预览层另有X方向排布偏移。",
        "layout_offset_x_m": 0.0,
        "source_image_no": 3,
        "id": "ARS-017",
        "type": "arrow_straight"
      },
      "geometry": {
        "type": "Polygon",
        "coordinates": [
          [
            [
              121.4189958365037,
              28.656259392773983
            ],
            [
              121.4189951898749,
              28.656256975235966
            ],
            [
              121.41902807906759,
              28.656250130796927
            ],
            [
              121.41902743243809,
              28.65624771325905
            ],
            [
              121.41905032850886,
              28.656246776601936
            ],
            [
              121.41902937232668,
              28.65625496587269
            ],
            [
              121.4190287256971,
              28.656252548334816
            ],
            [
              121.4189958365037,
              28.656259392773983
            ]
          ]
        ]
      }
    },
    {
      "type": "Feature",
      "id": 18,
      "properties": {
        "fid": 18,
        "arrow_id": "straight",
        "name_cn": "直行",
        "standard": "GB 5768.3-2025",
        "standard_figure": "图42（导向箭头一/线30）",
        "speed_class": "设计速度≤40 km/h",
        "nominal_length_m": 3.0,
        "area_m2": 0.54,
        "coordinate_unit": "metre",
        "origin_note": "尾杆底边中心为(0,0)，+Y为箭头前进方向；预览层另有X方向排布偏移。",
        "layout_offset_x_m": 0.0,
        "source_image_no": 3,
        "id": "ARS-018",
        "type": "arrow_straight"
      },
      "geometry": {
        "type": "Polygon",
        "coordinates": [
          [
            [
              121.4183629848868,
              28.656317974053202
            ],
            [
              121.41836233827239,
              28.65631555651274
            ],
            [
              121.41839522751691,
              28.65630871222985
            ],
            [
              121.4183945809018,
              28.65630629468952
            ],
            [
              121.41841747698557,
              28.656305358140177
            ],
            [
              121.41839652074722,
              28.656313547310504
            ],
            [
              121.41839587413206,
              28.656311129770184
            ],
            [
              121.4183629848868,
              28.656317974053202
            ]
          ]
        ]
      }
    },
    {
      "type": "Feature",
      "id": 19,
      "properties": {
        "fid": 19,
        "arrow_id": "straight",
        "name_cn": "直行",
        "standard": "GB 5768.3-2025",
        "standard_figure": "图42（导向箭头一/线30）",
        "speed_class": "设计速度≤40 km/h",
        "nominal_length_m": 3.0,
        "area_m2": 0.54,
        "coordinate_unit": "metre",
        "origin_note": "尾杆底边中心为(0,0)，+Y为箭头前进方向；预览层另有X方向排布偏移。",
        "layout_offset_x_m": 0.0,
        "source_image_no": 3,
        "id": "ARS-019",
        "type": "arrow_straight"
      },
      "geometry": {
        "type": "Polygon",
        "coordinates": [
          [
            [
              121.4183727028359,
              28.656346597793526
            ],
            [
              121.41837205622112,
              28.656344180253114
            ],
            [
              121.41840494547417,
              28.656337335968203
            ],
            [
              121.41840429885869,
              28.656334918427923
            ],
            [
              121.41842719494869,
              28.656333981877175
            ],
            [
              121.41840623870522,
              28.65634217104879
            ],
            [
              121.41840559208967,
              28.656339753508497
            ],
            [
              121.4183727028359,
              28.656346597793526
            ]
          ]
        ]
      }
    },
    {
      "type": "Feature",
      "id": 20,
      "properties": {
        "fid": 20,
        "arrow_id": "straight",
        "name_cn": "直行",
        "standard": "GB 5768.3-2025",
        "standard_figure": "图42（导向箭头一/线30）",
        "speed_class": "设计速度≤40 km/h",
        "nominal_length_m": 3.0,
        "area_m2": 0.54,
        "coordinate_unit": "metre",
        "origin_note": "尾杆底边中心为(0,0)，+Y为箭头前进方向；预览层另有X方向排布偏移。",
        "layout_offset_x_m": 0.0,
        "source_image_no": 3,
        "id": "ARS-020",
        "type": "arrow_straight"
      },
      "geometry": {
        "type": "Polygon",
        "coordinates": [
          [
            [
              121.41838023083703,
              28.656370886268352
            ],
            [
              121.41837958422195,
              28.656368468727955
            ],
            [
              121.41841247348226,
              28.656361624441523
            ],
            [
              121.41841182686649,
              28.65635920690126
            ],
            [
              121.41843472296178,
              28.656358270349457
            ],
            [
              121.41841376671391,
              28.656366459522044
            ],
            [
              121.41841312009807,
              28.656364041981792
            ],
            [
              121.41838023083703,
              28.656370886268352
            ]
          ]
        ]
      }
    }
  ]
}