{
  "type": "FeatureCollection",
  "name": "arrow_right_3m",
  "crs": {
    "type": "name",
    "properties": {
      "name": "urn:ogc:def:crs:OGC:1.3:CRS84"
    }
  },
  "features": [
    {
      "type": "Feature",
      "id": 1,
      "properties": {
        "fid": 1,
        "arrow_id": "right",
        "name_cn": "右转",
        "standard": "GB 5768.3-2025",
        "standard_figure": "图42（导向箭头一/线30）",
        "speed_class": "设计速度≤40 km/h",
        "nominal_length_m": 3.0,
        "area_m2": 0.72875,
        "coordinate_unit": "metre",
        "origin_note": "尾杆底边中心为(0,0)，+Y为箭头前进方向；预览层另有X方向排布偏移。",
        "layout_offset_x_m": 0.0,
        "source_image_no": 4,
        "id": "ARR-001",
        "type": "arrow_right"
      },
      "geometry": {
        "type": "Polygon",
        "coordinates": [
          [
            [
              121.41833915567004,
              28.656255590851675
            ],
            [
              121.41836333815063,
              28.65623877303787
            ],
            [
              121.41836754097295,
              28.656225601170185
            ],
            [
              121.4183594801482,
              28.656231207108934
            ],
            [
              121.41837009020725,
              28.656218703795194
            ],
            [
              121.41838724520768,
              28.65621189776214
            ],
            [
              121.41837828873798,
              28.656218126584353
            ],
            [
              121.41837620440397,
              28.656233668514048
            ],
            [
              121.41834127415632,
              28.6562579609138
            ],
            [
              121.41833915567004,
              28.656255590851675
            ]
          ]
        ]
      }
    },
    {
      "type": "Feature",
      "id": 2,
      "properties": {
        "fid": 2,
        "arrow_id": "right",
        "name_cn": "右转",
        "standard": "GB 5768.3-2025",
        "standard_figure": "图42（导向箭头一/线30）",
        "speed_class": "设计速度≤40 km/h",
        "nominal_length_m": 3.0,
        "area_m2": 0.72875,
        "coordinate_unit": "metre",
        "origin_note": "尾杆底边中心为(0,0)，+Y为箭头前进方向；预览层另有X方向排布偏移。",
        "layout_offset_x_m": 0.0,
        "source_image_no": 4,
        "id": "ARR-002",
        "type": "arrow_right"
      },
      "geometry": {
        "type": "Polygon",
        "coordinates": [
          [
            [
              121.41879884644815,
              28.656001591260498
            ],
            [
              121.41881545712977,
              28.656018912683916
            ],
            [
              121.41882804289804,
              28.6560216282965
            ],
            [
              121.41882250600273,
              28.65601585448938
            ],
            [
              121.41883464338778,
              28.656023306869404
            ],
            [
              121.4188415775336,
              28.656035742046335
            ],
            [
              121.4188354254261,
              28.656029326705646
            ],
            [
              121.41882065773706,
              28.656028239067314
            ],
            [
              121.41879666452871,
              28.656003219233714
            ],
            [
              121.41879884644815,
              28.656001591260498
            ]
          ]
        ]
      }
    },
    {
      "type": "Feature",
      "id": 3,
      "properties": {
        "fid": 3,
        "arrow_id": "right",
        "name_cn": "右转",
        "standard": "GB 5768.3-2025",
        "standard_figure": "图42（导向箭头一/线30）",
        "speed_class": "设计速度≤40 km/h",
        "nominal_length_m": 3.0,
        "area_m2": 0.72875,
        "coordinate_unit": "metre",
        "origin_note": "尾杆底边中心为(0,0)，+Y为箭头前进方向；预览层另有X方向排布偏移。",
        "layout_offset_x_m": 0.0,
        "source_image_no": 4,
        "id": "ARR-003",
        "type": "arrow_right"
      },
      "geometry": {
        "type": "Polygon",
        "coordinates": [
          [
            [
              121.41909496322344,
              28.656476093807477
            ],
            [
              121.41907800174313,
              28.656490081065126
            ],
            [
              121.41907579000048,
              28.656500212501918
            ],
            [
              121.41908144382839,
              28.656495550083104
            ],
            [
              121.41907437002737,
              28.656505537243554
            ],
            [
              121.4190619695301,
              28.656511609524642
            ],
            [
              121.41906825156246,
              28.656506429059963
            ],
            [
              121.41906870137184,
              28.656494635276392
            ],
            [
              121.4190932012892,
              28.65647443146085
            ],
            [
              121.41909496322344,
              28.656476093807477
            ]
          ]
        ]
      }
    },
    {
      "type": "Feature",
      "id": 4,
      "properties": {
        "fid": 4,
        "arrow_id": "right",
        "name_cn": "右转",
        "standard": "GB 5768.3-2025",
        "standard_figure": "图42（导向箭头一/线30）",
        "speed_class": "设计速度≤40 km/h",
        "nominal_length_m": 3.0,
        "area_m2": 0.72875,
        "coordinate_unit": "metre",
        "origin_note": "尾杆底边中心为(0,0)，+Y为箭头前进方向；预览层另有X方向排布偏移。",
        "layout_offset_x_m": 0.0,
        "source_image_no": 4,
        "id": "ARR-004",
        "type": "arrow_right"
      },
      "geometry": {
        "type": "Polygon",
        "coordinates": [
          [
            [
              121.41863784919433,
              28.656706843305297
            ],
            [
              121.41862160484438,
              28.656691420150565
            ],
            [
              121.4186098059397,
              28.656689382133937
            ],
            [
              121.41861522072178,
              28.65669452318615
            ],
            [
              121.41860360566635,
              28.656688077511188
            ],
            [
              121.41859656980792,
              28.656676815116533
            ],
            [
              121.41860258623106,
              28.656682527397322
            ],
            [
              121.41861632794878,
              28.656682973355245
            ],
            [
              121.41863979200839,
              28.656705251245675
            ],
            [
              121.41863784919433,
              28.656706843305297
            ]
          ]
        ]
      }
    }
  ]
}