{
  "type": "FeatureCollection",
  "name": "arrow_left_3m",
  "crs": {
    "type": "name",
    "properties": {
      "name": "urn:ogc:def:crs:OGC:1.3:CRS84"
    }
  },
  "features": [
    {
      "type": "Feature",
      "id": 2,
      "properties": {
        "fid": 2,
        "arrow_id": "left",
        "name_cn": "左转",
        "standard": "GB 5768.3-2025",
        "standard_figure": "图42（导向箭头一/线30）",
        "speed_class": "设计速度≤40 km/h",
        "nominal_length_m": 3.0,
        "area_m2": 0.72875,
        "coordinate_unit": "metre",
        "origin_note": "尾杆底边中心为(0,0)，+Y为箭头前进方向；预览层另有X方向排布偏移。",
        "layout_offset_x_m": 0.0,
        "source_image_no": 2,
        "id": "ARL-002",
        "type": "arrow_left"
      },
      "geometry": {
        "type": "Polygon",
        "coordinates": [
          [
            [
              121.41871233338298,
              28.656225100514593
            ],
            [
              121.41871481583009,
              28.656242560089794
            ],
            [
              121.4187099331006,
              28.656248102188414
            ],
            [
              121.41871056962542,
              28.656252579002576
            ],
            [
              121.41870752103777,
              28.65624564068281
            ],
            [
              121.41870859639862,
              28.656238700878678
            ],
            [
              121.41870916927087,
              28.65624273001143
            ],
            [
              121.4187125293893,
              28.656237356350026
            ],
            [
              121.41871081077231,
              28.656225268951797
            ],
            [
              121.41871233338298,
              28.656225100514593
            ]
          ]
        ]
      }
    },
    {
      "type": "Feature",
      "id": 3,
      "properties": {
        "fid": 3,
        "arrow_id": "left",
        "name_cn": "左转",
        "standard": "GB 5768.3-2025",
        "standard_figure": "图42（导向箭头一/线30）",
        "speed_class": "设计速度≤40 km/h",
        "nominal_length_m": 3.0,
        "area_m2": 0.72875,
        "coordinate_unit": "metre",
        "origin_note": "尾杆底边中心为(0,0)，+Y为箭头前进方向；预览层另有X方向排布偏移。",
        "layout_offset_x_m": 0.0,
        "source_image_no": 2,
        "id": "ARL-003",
        "type": "arrow_left"
      },
      "geometry": {
        "type": "Polygon",
        "coordinates": [
          [
            [
              121.41868502717246,
              28.656230222700533
            ],
            [
              121.41868750961508,
              28.65624768227605
            ],
            [
              121.41868262688396,
              28.656253224373614
            ],
            [
              121.41868326340763,
              28.656257701187855
            ],
            [
              121.41868021482168,
              28.65625076286754
            ],
            [
              121.4186812901844,
              28.656243823063722
            ],
            [
              121.41868186305561,
              28.65624785219652
            ],
            [
              121.41868522317556,
              28.656242478535887
            ],
            [
              121.41868350456168,
              28.656230391137427
            ],
            [
              121.41868502717246,
              28.656230222700533
            ]
          ]
        ]
      }
    },
    {
      "type": "Feature",
      "id": 4,
      "properties": {
        "fid": 4,
        "arrow_id": "left",
        "name_cn": "左转",
        "standard": "GB 5768.3-2025",
        "standard_figure": "图42（导向箭头一/线30）",
        "speed_class": "设计速度≤40 km/h",
        "nominal_length_m": 3.0,
        "area_m2": 0.72875,
        "coordinate_unit": "metre",
        "origin_note": "尾杆底边中心为(0,0)，+Y为箭头前进方向；预览层另有X方向排布偏移。",
        "layout_offset_x_m": 0.0,
        "source_image_no": 2,
        "id": "ARL-004",
        "type": "arrow_left"
      },
      "geometry": {
        "type": "Polygon",
        "coordinates": [
          [
            [
              121.41884559323643,
              28.65633445039586
            ],
            [
              121.41882585103426,
              28.65633697761489
            ],
            [
              121.41881947461238,
              28.65633277880077
            ],
            [
              121.4188144125093,
              28.656333426804952
            ],
            [
              121.41882221801659,
              28.65633060395491
            ],
            [
              121.41883010502865,
              28.656331417991368
            ],
            [
              121.41882554913599,
              28.656332001195498
            ],
            [
              121.41883170516476,
              28.65633486047692
            ],
            [
              121.41884537284292,
              28.656333110863446
            ],
            [
              121.41884559323643,
              28.65633445039586
            ]
          ]
        ]
      }
    },
    {
      "type": "Feature",
      "id": 5,
      "properties": {
        "fid": 5,
        "arrow_id": "left",
        "name_cn": "左转",
        "standard": "GB 5768.3-2025",
        "standard_figure": "图42（导向箭头一/线30）",
        "speed_class": "设计速度≤40 km/h",
        "nominal_length_m": 3.0,
        "area_m2": 0.72875,
        "coordinate_unit": "metre",
        "origin_note": "尾杆底边中心为(0,0)，+Y为箭头前进方向；预览层另有X方向排布偏移。",
        "layout_offset_x_m": 0.0,
        "source_image_no": 2,
        "id": "ARL-005",
        "type": "arrow_left"
      },
      "geometry": {
        "type": "Polygon",
        "coordinates": [
          [
            [
              121.41862474864088,
              28.656353750138578
            ],
            [
              121.4186445913703,
              28.656351936086686
            ],
            [
              121.41865076810348,
              28.656356361058492
            ],
            [
              121.41865585598293,
              28.656355895916295
            ],
            [
              121.41864792630886,
              28.656358435281184
            ],
            [
              121.41864008355653,
              28.65635733785651
            ],
            [
              121.41864466264809,
              28.656356919228898
            ],
            [
              121.41863864411482,
              28.65635384060992
            ],
            [
              121.41862490684038,
              28.656355096491694
            ],
            [
              121.41862474864088,
              28.656353750138578
            ]
          ]
        ]
      }
    },
    {
      "type": "Feature",
      "id": 6,
      "properties": {
        "fid": 6,
        "arrow_id": "left",
        "name_cn": "左转",
        "standard": "GB 5768.3-2025",
        "standard_figure": "图42（导向箭头一/线30）",
        "speed_class": "设计速度≤40 km/h",
        "nominal_length_m": 3.0,
        "area_m2": 0.72875,
        "coordinate_unit": "metre",
        "origin_note": "尾杆底边中心为(0,0)，+Y为箭头前进方向；预览层另有X方向排布偏移。",
        "layout_offset_x_m": 0.0,
        "source_image_no": 2,
        "id": "ARL-006",
        "type": "arrow_left"
      },
      "geometry": {
        "type": "Polygon",
        "coordinates": [
          [
            [
              121.41876108537198,
              28.656502094198448
            ],
            [
              121.41876226296945,
              28.656484528534858
            ],
            [
              121.41876821195484,
              28.656479867088173
            ],
            [
              121.41876851390253,
              28.656475363071824
            ],
            [
              121.41877007327447,
              28.656482676032923
            ],
            [
              121.41876757786454,
              28.65648932552247
            ],
            [
              121.41876784961754,
              28.656485271907776
            ],
            [
              121.41876343249814,
              28.65649001325572
            ],
            [
              121.41876261723847,
              28.656502174099742
            ],
            [
              121.41876108537198,
              28.656502094198448
            ]
          ]
        ]
      }
    },
    {
      "type": "Feature",
      "id": 7,
      "properties": {
        "fid": 7,
        "arrow_id": "left",
        "name_cn": "左转",
        "standard": "GB 5768.3-2025",
        "standard_figure": "图42（导向箭头一/线30）",
        "speed_class": "设计速度≤40 km/h",
        "nominal_length_m": 3.0,
        "area_m2": 0.72875,
        "coordinate_unit": "metre",
        "origin_note": "尾杆底边中心为(0,0)，+Y为箭头前进方向；预览层另有X方向排布偏移。",
        "layout_offset_x_m": 0.0,
        "source_image_no": 2,
        "id": "ARL-007",
        "type": "arrow_left"
      },
      "geometry": {
        "type": "Polygon",
        "coordinates": [
          [
            [
              121.41884906844551,
              28.65635889023015
            ],
            [
              121.41882932623881,
              28.656361417449506
            ],
            [
              121.41882294981534,
              28.656357218635492
            ],
            [
              121.4188178877111,
              28.656357866639755
            ],
            [
              121.41882569322016,
              28.656355043789585
            ],
            [
              121.41883358023406,
              28.656355857825915
            ],
            [
              121.41882902434035,
              28.65635644103013
            ],
            [
              121.41883518037062,
              28.656359300311436
            ],
            [
              121.41884884805194,
              28.656357550697734
            ],
            [
              121.41884906844551,
              28.65635889023015
            ]
          ]
        ]
      }
    },
    {
      "type": "Feature",
      "id": 8,
      "properties": {
        "fid": 8,
        "arrow_id": "left",
        "name_cn": "左转",
        "standard": "GB 5768.3-2025",
        "standard_figure": "图42（导向箭头一/线30）",
        "speed_class": "设计速度≤40 km/h",
        "nominal_length_m": 3.0,
        "area_m2": 0.72875,
        "coordinate_unit": "metre",
        "origin_note": "尾杆底边中心为(0,0)，+Y为箭头前进方向；预览层另有X方向排布偏移。",
        "layout_offset_x_m": 0.0,
        "source_image_no": 2,
        "id": "ARL-008",
        "type": "arrow_left"
      },
      "geometry": {
        "type": "Polygon",
        "coordinates": [
          [
            [
              121.41862810837462,
              28.65638031052547
            ],
            [
              121.41864795110904,
              28.65637849647329
            ],
            [
              121.41865412784387,
              28.656382921444983
            ],
            [
              121.4186592157246,
              28.656382456302705
            ],
            [
              121.41865128604857,
              28.65638499566772
            ],
            [
              121.41864344329423,
              28.65638389824316
            ],
            [
              121.41864802238695,
              28.65638347961548
            ],
            [
              121.41864200385209,
              28.656380400996596
            ],
            [
              121.41862826657419,
              28.65638165687858
            ],
            [
              121.41862810837462,
              28.65638031052547
            ]
          ]
        ]
      }
    },
    {
      "type": "Feature",
      "id": 9,
      "properties": {
        "fid": 9,
        "arrow_id": "left",
        "name_cn": "左转",
        "standard": "GB 5768.3-2025",
        "standard_figure": "图42（导向箭头一/线30）",
        "speed_class": "设计速度≤40 km/h",
        "nominal_length_m": 3.0,
        "area_m2": 0.72875,
        "coordinate_unit": "metre",
        "origin_note": "尾杆底边中心为(0,0)，+Y为箭头前进方向；预览层另有X方向排布偏移。",
        "layout_offset_x_m": 0.0,
        "source_image_no": 2,
        "id": "ARL-009",
        "type": "arrow_left"
      },
      "geometry": {
        "type": "Polygon",
        "coordinates": [
          [
            [
              121.41873690507708,
              28.65650134925184
            ],
            [
              121.41873808267856,
              28.656483783588623
            ],
            [
              121.41874403166491,
              28.656479122143026
            ],
            [
              121.41874433361365,
              28.65647461812679
            ],
            [
              121.41874589298388,
              28.65648193108808
            ],
            [
              121.41874339757246,
              28.65648858057714
            ],
            [
              121.41874366932639,
              28.656484526962526
            ],
            [
              121.41873925220597,
              28.65648926830965
            ],
            [
              121.41873843694353,
              28.656501429153412
            ],
            [
              121.41873690507708,
              28.65650134925184
            ]
          ]
        ]
      }
    },
    {
      "type": "Feature",
      "id": 10,
      "properties": {
        "fid": 10,
        "arrow_id": "left",
        "name_cn": "左转",
        "standard": "GB 5768.3-2025",
        "standard_figure": "图42（导向箭头一/线30）",
        "speed_class": "设计速度≤40 km/h",
        "nominal_length_m": 3.0,
        "area_m2": 0.72875,
        "coordinate_unit": "metre",
        "origin_note": "尾杆底边中心为(0,0)，+Y为箭头前进方向；预览层另有X方向排布偏移。",
        "layout_offset_x_m": 0.0,
        "source_image_no": 2,
        "id": "ARL-010",
        "type": "arrow_left"
      },
      "geometry": {
        "type": "Polygon",
        "coordinates": [
          [
            [
              121.41880509606705,
              28.656676845463934
            ],
            [
              121.4187950781292,
              28.656647473611972
            ],
            [
              121.41880164459259,
              28.656636696910684
            ],
            [
              121.41879907589117,
              28.656629165666583
            ],
            [
              121.41880660109899,
              28.656640309354113
            ],
            [
              121.4188070388667,
              28.656652512523127
            ],
            [
              121.41880472703477,
              28.656645734403533
            ],
            [
              121.4188007220355,
              28.65665583137783
            ],
            [
              121.41880765753196,
              28.656676165736684
            ],
            [
              121.41880509606705,
              28.656676845463934
            ]
          ]
        ]
      }
    },
    {
      "type": "Feature",
      "id": 11,
      "properties": {
        "fid": 11,
        "arrow_id": "left",
        "name_cn": "左转",
        "standard": "GB 5768.3-2025",
        "standard_figure": "图42（导向箭头一/线30）",
        "speed_class": "设计速度≤40 km/h",
        "nominal_length_m": 3.0,
        "area_m2": 0.72875,
        "coordinate_unit": "metre",
        "origin_note": "尾杆底边中心为(0,0)，+Y为箭头前进方向；预览层另有X方向排布偏移。",
        "layout_offset_x_m": 0.0,
        "source_image_no": 2,
        "id": "ARL-011",
        "type": "arrow_left"
      },
      "geometry": {
        "type": "Polygon",
        "coordinates": [
          [
            [
              121.41877639139194,
              28.656684451567624
            ],
            [
              121.4187663734616,
              28.65665507971387
            ],
            [
              121.41877293992837,
              28.656644303014108
            ],
            [
              121.41877037122887,
              28.65663677176955
            ],
            [
              121.41877789643408,
              28.656647915458567
            ],
            [
              121.41877833419845,
              28.65666011862753
            ],
            [
              121.41877602236823,
              28.65665334050752
            ],
            [
              121.41877201736594,
              28.65666343748084
            ],
            [
              121.4187789528572,
              28.656683771840953
            ],
            [
              121.41877639139194,
              28.656684451567624
            ]
          ]
        ]
      }
    },
    {
      "type": "Feature",
      "id": 12,
      "properties": {
        "fid": 12,
        "arrow_id": "left",
        "name_cn": "左转",
        "standard": "GB 5768.3-2025",
        "standard_figure": "图42（导向箭头一/线30）",
        "speed_class": "设计速度≤40 km/h",
        "nominal_length_m": 3.0,
        "area_m2": 0.72875,
        "coordinate_unit": "metre",
        "origin_note": "尾杆底边中心为(0,0)，+Y为箭头前进方向；预览层另有X方向排布偏移。",
        "layout_offset_x_m": 0.0,
        "source_image_no": 2,
        "id": "ARL-012",
        "type": "arrow_left"
      },
      "geometry": {
        "type": "Polygon",
        "coordinates": [
          [
            [
              121.4183940456587,
              28.656417730699403
            ],
            [
              121.41842797572805,
              28.656411017177163
            ],
            [
              121.41843969248121,
              28.65641756499836
            ],
            [
              121.41844839249876,
              28.65641584358027
            ],
            [
              121.41843525310117,
              28.656421667441812
            ],
            [
              121.41842142244354,
              28.656421179974505
            ],
            [
              121.41842925245982,
              28.65641963069932
            ],
            [
              121.41841812117967,
              28.656415385071945
            ],
            [
              121.41839463113075,
              28.656420032894196
            ],
            [
              121.4183940456587,
              28.656417730699403
            ]
          ]
        ]
      }
    },
    {
      "type": "Feature",
      "id": 13,
      "properties": {
        "fid": 13,
        "arrow_id": "left",
        "name_cn": "左转",
        "standard": "GB 5768.3-2025",
        "standard_figure": "图42（导向箭头一/线30）",
        "speed_class": "设计速度≤40 km/h",
        "nominal_length_m": 3.0,
        "area_m2": 0.72875,
        "coordinate_unit": "metre",
        "origin_note": "尾杆底边中心为(0,0)，+Y为箭头前进方向；预览层另有X方向排布偏移。",
        "layout_offset_x_m": 0.0,
        "source_image_no": 2,
        "id": "ARL-013",
        "type": "arrow_left"
      },
      "geometry": {
        "type": "Polygon",
        "coordinates": [
          [
            [
              121.41838759331908,
              28.65639248151603
            ],
            [
              121.41842152338054,
              28.656385767995072
            ],
            [
              121.41843324013054,
              28.656392315816728
            ],
            [
              121.41844194014607,
              28.656390594398964
            ],
            [
              121.41842880075136,
              28.656396418260012
            ],
            [
              121.41841497009712,
              28.656395930792176
            ],
            [
              121.41842280011157,
              28.65639438151728
            ],
            [
              121.41841166883432,
              28.656390135889485
            ],
            [
              121.41838817879088,
              28.656394783710844
            ],
            [
              121.41838759331908,
              28.65639248151603
            ]
          ]
        ]
      }
    },
    {
      "type": "Feature",
      "id": 14,
      "properties": {
        "fid": 14,
        "arrow_id": "left",
        "name_cn": "左转",
        "standard": "GB 5768.3-2025",
        "standard_figure": "图42（导向箭头一/线30）",
        "speed_class": "设计速度≤40 km/h",
        "nominal_length_m": 3.0,
        "area_m2": 0.72875,
        "coordinate_unit": "metre",
        "origin_note": "尾杆底边中心为(0,0)，+Y为箭头前进方向；预览层另有X方向排布偏移。",
        "layout_offset_x_m": 0.0,
        "source_image_no": 2,
        "id": "ARL-014",
        "type": "arrow_left"
      },
      "geometry": {
        "type": "Polygon",
        "coordinates": [
          [
            [
              121.41906159185494,
              28.6562947407484
            ],
            [
              121.41902831788946,
              28.656303650062572
            ],
            [
              121.41901608406533,
              28.656297884784685
            ],
            [
              121.4190075522787,
              28.6563001692221
            ],
            [
              121.41902016718853,
              28.656293503882043
            ],
            [
              121.4190340008161,
              28.656293087464316
            ],
            [
              121.41902632220882,
              28.656295143459058
            ],
            [
              121.41903777907137,
              28.65629865105617
            ],
            [
              121.41906081489262,
              28.656292483068654
            ],
            [
              121.41906159185494,
              28.6562947407484
            ]
          ]
        ]
      }
    },
    {
      "type": "Feature",
      "id": 15,
      "properties": {
        "fid": 15,
        "arrow_id": "left",
        "name_cn": "左转",
        "standard": "GB 5768.3-2025",
        "standard_figure": "图42（导向箭头一/线30）",
        "speed_class": "设计速度≤40 km/h",
        "nominal_length_m": 3.0,
        "area_m2": 0.72875,
        "coordinate_unit": "metre",
        "origin_note": "尾杆底边中心为(0,0)，+Y为箭头前进方向；预览层另有X方向排布偏移。",
        "layout_offset_x_m": 0.0,
        "source_image_no": 2,
        "id": "ARL-015",
        "type": "arrow_left"
      },
      "geometry": {
        "type": "Polygon",
        "coordinates": [
          [
            [
              121.41906609090763,
              28.656321072418468
            ],
            [
              121.41903281693403,
              28.656329981733403
            ],
            [
              121.41902058310666,
              28.656324216455815
            ],
            [
              121.41901205131795,
              28.656326500893428
            ],
            [
              121.41902466623077,
              28.656319835553084
            ],
            [
              121.4190384998618,
              28.65631941913504
            ],
            [
              121.41903082125265,
              28.65632147512996
            ],
            [
              121.4190422781182,
              28.65632498272679
            ],
            [
              121.41906531394504,
              28.65631881473875
            ],
            [
              121.41906609090763,
              28.656321072418468
            ]
          ]
        ]
      }
    },
    {
      "type": "Feature",
      "id": 16,
      "properties": {
        "fid": 16,
        "arrow_id": "left",
        "name_cn": "左转",
        "standard": "GB 5768.3-2025",
        "standard_figure": "图42（导向箭头一/线30）",
        "speed_class": "设计速度≤40 km/h",
        "nominal_length_m": 3.0,
        "area_m2": 0.72875,
        "coordinate_unit": "metre",
        "origin_note": "尾杆底边中心为(0,0)，+Y为箭头前进方向；预览层另有X方向排布偏移。",
        "layout_offset_x_m": 0.0,
        "source_image_no": 2,
        "id": "ARL-016",
        "type": "arrow_left"
      },
      "geometry": {
        "type": "Polygon",
        "coordinates": [
          [
            [
              121.41863988059723,
              28.65603466352614
            ],
            [
              121.41864838764693,
              28.656064403762322
            ],
            [
              121.41864127729343,
              28.65607490848997
            ],
            [
              121.41864345858859,
              28.656082534191572
            ],
            [
              121.41863651041524,
              28.656071102689168
            ],
            [
              121.41863669657454,
              28.656058894516523
            ],
            [
              121.41863865973963,
              28.65606575764801
            ],
            [
              121.41864317651718,
              28.65605583013573
            ],
            [
              121.4186372870222,
              28.656035240741318
            ],
            [
              121.41863988059723,
              28.65603466352614
            ]
          ]
        ]
      }
    },
    {
      "type": "Feature",
      "id": 17,
      "properties": {
        "fid": 17,
        "arrow_id": "left",
        "name_cn": "左转",
        "standard": "GB 5768.3-2025",
        "standard_figure": "图42（导向箭头一/线30）",
        "speed_class": "设计速度≤40 km/h",
        "nominal_length_m": 3.0,
        "area_m2": 0.72875,
        "coordinate_unit": "metre",
        "origin_note": "尾杆底边中心为(0,0)，+Y为箭头前进方向；预览层另有X方向排布偏移。",
        "layout_offset_x_m": 0.0,
        "source_image_no": 2,
        "id": "ARL-017",
        "type": "arrow_left"
      },
      "geometry": {
        "type": "Polygon",
        "coordinates": [
          [
            [
              121.41866785497635,
              28.656029931592432
            ],
            [
              121.41867636203371,
              28.65605967182716
            ],
            [
              121.41866925168328,
              28.65607017655642
            ],
            [
              121.4186714329804,
              28.65607780225765
            ],
            [
              121.41866448480422,
              28.656066370756577
            ],
            [
              121.41866467096025,
              28.656054162583747
            ],
            [
              121.4186666341271,
              28.6560610257149
            ],
            [
              121.41867115090184,
              28.656051098201566
            ],
            [
              121.41866526140154,
              28.65603050880816
            ],
            [
              121.41866785497635,
              28.656029931592432
            ]
          ]
        ]
      }
    }
  ]
}