{
  "type": "FeatureCollection",
  "name": "护栏",
  "crs": {
    "type": "name",
    "properties": {
      "name": "urn:ogc:def:crs:OGC:1.3:CRS84"
    }
  },
  "features": [
    {
      "type": "Feature",
      "id": 1,
      "properties": {
        "fid": 1,
        "id": "GRD-001",
        "type": "guardrail"
      },
      "geometry": {
        "type": "LineString",
        "coordinates": [
          [
            121.41900806450379,
            28.656097968138102
          ],
          [
            121.41901550387301,
            28.656100290188895
          ],
          [
            121.41902298665948,
            28.656102501035747
          ],
          [
            121.41903051072688,
            28.656104600047467
          ],
          [
            121.41903807392713,
            28.656106586624794
          ],
          [
            121.41904567410093,
            28.656108460200574
          ],
          [
            121.41905330907842,
            28.656110220239874
          ],
          [
            121.41906097667987,
            28.656111866240227
          ],
          [
            121.41906867471616,
            28.656113397731687
          ],
          [
            121.41907640098951,
            28.65611481427703
          ],
          [
            121.41908415329411,
            28.65611611547182
          ],
          [
            121.41909192941667,
            28.65611730094457
          ],
          [
            121.41909972713711,
            28.656118370356833
          ],
          [
            121.41910754422922,
            28.65611932340328
          ],
          [
            121.41911537846121,
            28.656120159811834
          ],
          [
            121.41912322759642,
            28.65612087934369
          ],
          [
            121.41913108939394,
            28.656121481793424
          ],
          [
            121.4191389616092,
            28.656121966989037
          ],
          [
            121.41914684199476,
            28.656122334792
          ],
          [
            121.41915472830073,
            28.656122585097307
          ],
          [
            121.4191626182756,
            28.656122717833497
          ],
          [
            121.4191705096668,
            28.656122732962682
          ],
          [
            121.41917840022131,
            28.65612263048052
          ],
          [
            121.4191862876864,
            28.65612241041629
          ],
          [
            121.41919416981024,
            28.6561220728328
          ],
          [
            121.41920204434248,
            28.656121617826447
          ],
          [
            121.41920990903492,
            28.656121045527126
          ],
          [
            121.41936271878711,
            28.656094586193113
          ]
        ]
      }
    },
    {
      "type": "Feature",
      "id": 2,
      "properties": {
        "fid": 2,
        "id": "GRD-002",
        "type": "guardrail"
      },
      "geometry": {
        "type": "LineString",
        "coordinates": [
          [
            121.41916410056953,
            28.65639664168079
          ],
          [
            121.41966032406019,
            28.656302651099242
          ]
        ]
      }
    },
    {
      "type": "Feature",
      "id": 3,
      "properties": {
        "fid": 3,
        "id": "GRD-003",
        "type": "guardrail"
      },
      "geometry": {
        "type": "LineString",
        "coordinates": [
          [
            121.4182569678492,
            28.656323942831932
          ],
          [
            121.41802436656816,
            28.65636540969485
          ]
        ]
      }
    },
    {
      "type": "Feature",
      "id": 4,
      "properties": {
        "fid": 4,
        "id": "GRD-004",
        "type": "guardrail"
      },
      "geometry": {
        "type": "LineString",
        "coordinates": [
          [
            121.41822755255895,
            28.65629262140524
          ],
          [
            121.41801271406557,
            28.65633352563173
          ]
        ]
      }
    },
    {
      "type": "Feature",
      "id": 5,
      "properties": {
        "fid": 5,
        "id": "GRD-005",
        "type": "guardrail"
      },
      "geometry": {
        "type": "LineString",
        "coordinates": [
          [
            121.41848586663086,
            28.656616160318965
          ],
          [
            121.41847759252305,
            28.656613725009606
          ],
          [
            121.41846927214449,
            28.656611415610854
          ],
          [
            121.41846090795767,
            28.656609232806193
          ],
          [
            121.41845250243799,
            28.65660717724162
          ],
          [
            121.41844405807306,
            28.65660524952551
          ],
          [
            121.41843557736208,
            28.656603450228342
          ],
          [
            121.41842706281487,
            28.656601779882642
          ],
          [
            121.4184185169514,
            28.656600238982758
          ],
          [
            121.41840994230084,
            28.65659882798471
          ],
          [
            121.41840134140091,
            28.65659754730609
          ],
          [
            121.41839271679702,
            28.656596397325938
          ],
          [
            121.41838407104169,
            28.656595378384562
          ],
          [
            121.41837540669363,
            28.656594490783526
          ],
          [
            121.41836672631712,
            28.656593734785545
          ],
          [
            121.41835803248115,
            28.656593110614324
          ],
          [
            121.41834932775865,
            28.6565926184546
          ],
          [
            121.4183406147258,
            28.65659225845203
          ],
          [
            121.41833189596133,
            28.656592030713163
          ],
          [
            121.41832317404554,
            28.656591935305382
          ],
          [
            121.41831445155968,
            28.65659197225694
          ],
          [
            121.41830573108524,
            28.656592141556878
          ],
          [
            121.41829701520307,
            28.656592443155112
          ],
          [
            121.41828830649266,
            28.656592876962378
          ],
          [
            121.41827960753136,
            28.65659344285027
          ],
          [
            121.41827092089366,
            28.656594140651325
          ],
          [
            121.41826224915043,
            28.65659497015902
          ],
          [
            121.41825359486806,
            28.656595931127868
          ],
          [
            121.41824496060785,
            28.656597023273452
          ],
          [
            121.41823634892512,
            28.656598246272555
          ],
          [
            121.41822776236855,
            28.656599599763226
          ],
          [
            121.41808058071113,
            28.656632211768883
          ]
        ]
      }
    }
  ]
}