{
  "type": "FeatureCollection",
  "name": "道路中线",
  "crs": {
    "type": "name",
    "properties": {
      "name": "urn:ogc:def:crs:OGC:1.3:CRS84"
    }
  },
  "features": [
    {
      "type": "Feature",
      "id": 1,
      "properties": {
        "fid": 1,
        "road_id": "R002",
        "road_name": "白云山中路",
        "road_class": null,
        "lane_count": null,
        "width_m": null,
        "surface": "沥青",
        "id": "CTR-001",
        "type": "road_centerline"
      },
      "geometry": {
        "type": "LineString",
        "coordinates": []
      }
    },
    {
      "type": "Feature",
      "id": 2,
      "properties": {
        "fid": 2,
        "road_id": "R003",
        "road_name": "白云山南路",
        "road_class": null,
        "lane_count": null,
        "width_m": null,
        "surface": "沥青",
        "id": "CTR-002",
        "type": "road_centerline"
      },
      "geometry": {
        "type": "LineString",
        "coordinates": [
          [
            121.41872165903733,
            28.65633635943242
          ],
          [
            121.41713105958165,
            28.649853838281665
          ]
        ]
      }
    },
    {
      "type": "Feature",
      "id": 3,
      "properties": {
        "fid": 3,
        "road_id": "R001",
        "road_name": "市府大道",
        "road_class": null,
        "lane_count": null,
        "width_m": null,
        "surface": "沥青",
        "id": "CTR-003",
        "type": "road_centerline"
      },
      "geometry": {
        "type": "LineString",
        "coordinates": [
          [
            121.42366856313141,
            28.655380926137365
          ],
          [
            121.4132133479952,
            28.657410600841235
          ]
        ]
      }
    },
    {
      "type": "Feature",
      "id": 4,
      "properties": {
        "fid": 4,
        "road_id": null,
        "road_name": null,
        "road_class": null,
        "lane_count": null,
        "width_m": null,
        "surface": null,
        "id": "CTR-004",
        "type": "road_centerline"
      },
      "geometry": {
        "type": "LineString",
        "coordinates": [
          [
            121.41872283663936,
            28.656340376840678
          ],
          [
            121.41879069334942,
            28.656586140501204
          ],
          [
            121.41887142578052,
            28.656899327154246
          ],
          [
            121.41894661525141,
            28.657213585540973
          ],
          [
            121.41901624345012,
            28.657528839335043
          ],
          [
            121.4190802934149,
            28.657845011967645
          ],
          [
            121.41908828361838,
            28.6579225425935
          ],
          [
            121.41909478666874,
            28.658000181288916
          ],
          [
            121.41909980070388,
            28.65807790586179
          ],
          [
            121.41910332428726,
            28.658155694095413
          ],
          [
            121.41910535640841,
            28.658233523754866
          ],
          [
            121.41910589648316,
            28.658311372593303
          ],
          [
            121.41910494435382,
            28.65838921835836
          ],
          [
            121.41910250028924,
            28.6584670387985
          ],
          [
            121.41909856498474,
            28.65854481166936
          ],
          [
            121.4190931395619,
            28.658622514740163
          ],
          [
            121.41908622556824,
            28.658700125800014
          ],
          [
            121.41907782497682,
            28.658777622664275
          ],
          [
            121.41906794018564,
            28.658854983180895
          ],
          [
            121.41905657401695,
            28.658932185236743
          ],
          [
            121.4190437297165,
            28.659009206763983
          ],
          [
            121.41902941095258,
            28.65908602574627
          ],
          [
            121.41901362181494,
            28.659162620225153
          ],
          [
            121.4189963668137,
            28.659238968306298
          ],
          [
            121.41897765087802,
            28.659315048165755
          ],
          [
            121.41895747935472,
            28.659390838056183
          ],
          [
            121.41893585800666,
            28.65946631631313
          ],
          [
            121.41891279301129,
            28.659541461361144
          ],
          [
            121.41888829095866,
            28.659616251719964
          ],
          [
            121.41886235884974,
            28.6596906660107
          ],
          [
            121.41883500409425,
            28.659764682961914
          ],
          [
            121.41880623450868,
            28.659838281415702
          ],
          [
            121.418776058314,
            28.659911440333772
          ],
          [
            121.4187444841333,
            28.65998413880338
          ],
          [
            121.41870972407821,
            28.66006516228094
          ],
          [
            121.41867352434451,
            28.660145693807433
          ],
          [
            121.41863589387425,
            28.660225713482887
          ],
          [
            121.41859684196305,
            28.66030520153375
          ],
          [
            121.41855637825789,
            28.66038413831779
          ],
          [
            121.41851451275464,
            28.66046250432898
          ],
          [
            121.41847125579567,
            28.66054028020229
          ],
          [
            121.41842661806726,
            28.660617446718472
          ],
          [
            121.41838061059696,
            28.660693984808827
          ],
          [
            121.41833324475087,
            28.660769875559897
          ]
        ]
      }
    }
  ]
}