{
  "type": "FeatureCollection",
  "name": "道路范围",
  "crs": {
    "type": "name",
    "properties": {
      "name": "urn:ogc:def:crs:OGC:1.3:CRS84"
    }
  },
  "features": [
    {
      "type": "Feature",
      "id": 4,
      "properties": {
        "fid": 4,
        "surface_id": null,
        "road_id": null,
        "surface_type": null,
        "source": "esri",
        "id": "RDS-004",
        "type": "road"
      },
      "geometry": {
        "type": "Polygon",
        "coordinates": [
          [
            [
              121.41839448394605,
              28.65575351551473
            ],
            [
              121.41843720076056,
              28.655919882318802
            ],
            [
              121.418448332305,
              28.656035586160836
            ],
            [
              121.41843051569285,
              28.656093672239457
            ],
            [
              121.4184034957795,
              28.65615290950438
            ],
            [
              121.41833782771597,
              28.656219658105282
            ],
            [
              121.41826133456959,
              28.656261563146515
            ],
            [
              121.41801341457649,
              28.656313428960303
            ],
            [
              121.41808692705195,
              28.656662331986126
            ],
            [
              121.41836326792395,
              28.656621726369636
            ],
            [
              121.41844277230021,
              28.656628345002073
            ],
            [
              121.41851600484057,
              28.65666121190816
            ],
            [
              121.41858547476002,
              28.65671996872239
            ],
            [
              121.4186289489302,
              28.656774334493488
            ],
            [
              121.4186940145061,
              28.657013889227766
            ],
            [
              121.41901425012306,
              28.656942877759317
            ],
            [
              121.4189859301581,
              28.65680147290052
            ],
            [
              121.4189965227619,
              28.656694997981724
            ],
            [
              121.419041827281,
              28.656603481792185
            ],
            [
              121.41911056960535,
              28.656525356925318
            ],
            [
              121.41930346118099,
              28.6564380759178
            ],
            [
              121.41967235354875,
              28.656364564030984
            ],
            [
              121.41960416895692,
              28.65601363017916
            ],
            [
              121.41920187320866,
              28.656094831233467
            ],
            [
              121.41908858245421,
              28.656079088482997
            ],
            [
              121.41892164186781,
              28.65602976141571
            ],
            [
              121.41884038220506,
              28.65596911946544
            ],
            [
              121.41876877028758,
              28.65585439934715
            ],
            [
              121.4187174876562,
              28.65570700857224
            ],
            [
              121.41839448394605,
              28.65575351551473
            ]
          ]
        ]
      }
    }
  ]
}