{
  "type": "FeatureCollection",
  "name": "人行道",
  "crs": {
    "type": "name",
    "properties": {
      "name": "urn:ogc:def:crs:OGC:1.3:CRS84"
    }
  },
  "features": [
    {
      "type": "Feature",
      "id": 9,
      "properties": {
        "fid": 9,
        "sidewalk_id": null,
        "material": null,
        "source": null,
        "id": "SWD-009",
        "type": "sidewalk"
      },
      "geometry": {
        "type": "Polygon",
        "coordinates": [
          [
            [
              121.41967059126486,
              28.656365770595738
            ],
            [
              121.41952263887964,
              28.656395041302435
            ],
            [
              121.41952182891566,
              28.656395527864554
            ],
            [
              121.41952102864124,
              28.656396026745345
            ],
            [
              121.41952023829714,
              28.65639653779472
            ],
            [
              121.41951945812114,
              28.65639706085891
            ],
            [
              121.419518688348,
              28.656397595780557
            ],
            [
              121.4195179292093,
              28.65639814239871
            ],
            [
              121.41951718093344,
              28.65639870054891
            ],
            [
              121.41951644374555,
              28.65639927006323
            ],
            [
              121.41951571786743,
              28.65639985077032
            ],
            [
              121.41951500351746,
              28.656400442495478
            ],
            [
              121.41951430091058,
              28.65640104506065
            ],
            [
              121.41951361025818,
              28.656401658284572
            ],
            [
              121.41951293176804,
              28.656402281982725
            ],
            [
              121.4195122656443,
              28.65640291596747
            ],
            [
              121.41951161208738,
              28.65640356004806
            ],
            [
              121.41951097129392,
              28.65640421403071
            ],
            [
              121.4195103434567,
              28.65640487771866
            ],
            [
              121.41950972876461,
              28.65640555091223
            ],
            [
              121.41950912740259,
              28.656406233408884
            ],
            [
              121.4195085395516,
              28.656406925003267
            ],
            [
              121.41950796538848,
              28.656407625487308
            ],
            [
              121.41950740508598,
              28.656408334650266
            ],
            [
              121.41950685881267,
              28.656409052278768
            ],
            [
              121.41950632673291,
              28.65640977815691
            ],
            [
              121.41950580900681,
              28.65641051206629
            ],
            [
              121.4195053057901,
              28.6564112537861
            ],
            [
              121.41950481723418,
              28.6564120030932
            ],
            [
              121.41950434348607,
              28.656412759762116
            ],
            [
              121.4195038846883,
              28.656413523565227
            ],
            [
              121.41950344097887,
              28.65641429427271
            ],
            [
              121.41950301249133,
              28.656415071652685
            ],
            [
              121.41950259935457,
              28.65641585547127
            ],
            [
              121.41950220169288,
              28.656416645492644
            ],
            [
              121.41950181962592,
              28.656417441479103
            ],
            [
              121.41950145326865,
              28.65641824319118
            ],
            [
              121.41950110273127,
              28.65641905038765
            ],
            [
              121.41950076811926,
              28.65641986282566
            ],
            [
              121.41950044953329,
              28.656420680260783
            ],
            [
              121.41950014706921,
              28.656421502447078
            ],
            [
              121.41949986081804,
              28.65642232913716
            ],
            [
              121.41949959086587,
              28.656423160082326
            ],
            [
              121.41949933729394,
              28.656423995032572
            ],
            [
              121.41949910017854,
              28.656424833736672
            ],
            [
              121.41949887959102,
              28.656425675942298
            ],
            [
              121.41949867559774,
              28.65642652139606
            ],
            [
              121.41949848826006,
              28.6564273698436
            ],
            [
              121.41949831763436,
              28.656428221029618
            ],
            [
              121.41949816377199,
              28.656429074698057
            ],
            [
              121.41949802671921,
              28.65642993059205
            ],
            [
              121.41949790651728,
              28.656430788454102
            ],
            [
              121.41949780320235,
              28.656431648026103
            ],
            [
              121.41949771680551,
              28.65643250904944
            ],
            [
              121.41949764735274,
              28.656433371265063
            ],
            [
              121.41949759486498,
              28.65643423441356
            ],
            [
              121.41949755935798,
              28.65643509823524
            ],
            [
              121.41949754084243,
              28.6564359624702
            ],
            [
              121.41949753932391,
              28.656436826858414
            ],
            [
              121.41949755480287,
              28.656437691139843
            ],
            [
              121.41949758727468,
              28.65643855505443
            ],
            [
              121.41949763672953,
              28.65643941834226
            ],
            [
              121.41949770315256,
              28.6564402807436
            ],
            [
              121.41949778652379,
              28.656441141998982
            ],
            [
              121.41949788681814,
              28.656442001849282
            ],
            [
              121.41949800400542,
              28.656442860035796
            ],
            [
              121.41949813805039,
              28.656443716300338
            ],
            [
              121.41949828891269,
              28.65644457038528
            ],
            [
              121.41949845654698,
              28.65644542203364
            ],
            [
              121.41949864090277,
              28.656446270989203
            ],
            [
              121.41949884192464,
              28.656447116996546
            ],
            [
              121.41967976072294,
              28.656409989796288
            ],
            [
              121.41967059126486,
              28.656365770595738
            ]
          ]
        ]
      }
    },
    {
      "type": "Feature",
      "id": 10,
      "properties": {
        "fid": 10,
        "sidewalk_id": null,
        "material": null,
        "source": null,
        "id": "SWD-010",
        "type": "sidewalk"
      },
      "geometry": {
        "type": "Polygon",
        "coordinates": [
          [
            [
              121.41941962001661,
              28.65645938018684
            ],
            [
              121.41941952816654,
              28.65645870416736
            ],
            [
              121.41941942303104,
              28.656458029655568
            ],
            [
              121.41941930464178,
              28.65645735685456
            ],
            [
              121.41941917303438,
              28.65645668596695
            ],
            [
              121.41941902824851,
              28.65645601719479
            ],
            [
              121.41941887032776,
              28.656455350739442
            ],
            [
              121.41941869931968,
              28.656454686801634
            ],
            [
              121.41941851527577,
              28.656454025581283
            ],
            [
              121.41941831825145,
              28.656453367277518
            ],
            [
              121.41941810830605,
              28.656452712088583
            ],
            [
              121.4194178855028,
              28.656452060211777
            ],
            [
              121.4194176499088,
              28.65645141184342
            ],
            [
              121.41941740159498,
              28.656450767178747
            ],
            [
              121.41941714063614,
              28.656450126411897
            ],
            [
              121.41941686711087,
              28.656449489735827
            ],
            [
              121.4194165811015,
              28.65644885734228
            ],
            [
              121.4194162826942,
              28.65644822942169
            ],
            [
              121.41941597197881,
              28.656447606163148
            ],
            [
              121.41941564904891,
              28.656446987754343
            ],
            [
              121.41941531400175,
              28.656446374381492
            ],
            [
              121.41941496693822,
              28.65644576622933
            ],
            [
              121.41941460796284,
              28.656445163480996
            ],
            [
              121.4194142371837,
              28.65644456631798
            ],
            [
              121.41941385471247,
              28.65644397492012
            ],
            [
              121.41941346066433,
              28.656443389465515
            ],
            [
              121.41941305515793,
              28.656442810130475
            ],
            [
              121.4194126383154,
              28.656442237089443
            ],
            [
              121.41941221026227,
              28.65644167051501
            ],
            [
              121.41941177112743,
              28.656441110577774
            ],
            [
              121.41941132104311,
              28.656440557446366
            ],
            [
              121.4194108601449,
              28.656440011287355
            ],
            [
              121.41941038857155,
              28.656439472265216
            ],
            [
              121.41940990646508,
              28.656438940542262
            ],
            [
              121.41940941397067,
              28.656438416278615
            ],
            [
              121.41940891123664,
              28.656437899632163
            ],
            [
              121.41940839841439,
              28.656437390758484
            ],
            [
              121.41940787565835,
              28.656436889810823
            ],
            [
              121.41940734312593,
              28.656436396940027
            ],
            [
              121.41940680097748,
              28.656435912294523
            ],
            [
              121.41940624937631,
              28.656435436020267
            ],
            [
              121.41940568848851,
              28.65643496826069
            ],
            [
              121.41940511848297,
              28.65643450915663
            ],
            [
              121.41940453953136,
              28.65643405884636
            ],
            [
              121.41940395180802,
              28.65643361746547
            ],
            [
              121.41940335548995,
              28.6564331851469
            ],
            [
              121.4194027507567,
              28.656432762020838
            ],
            [
              121.41940213779041,
              28.656432348214675
            ],
            [
              121.41940151677565,
              28.65643194385305
            ],
            [
              121.41940088789943,
              28.65643154905774
            ],
            [
              121.41940025135115,
              28.6564311639476
            ],
            [
              121.41939960732249,
              28.656430788638637
            ],
            [
              121.41939895600738,
              28.656430423243876
            ],
            [
              121.41939829760199,
              28.656430067873316
            ],
            [
              121.41939763230455,
              28.656429722633987
            ],
            [
              121.41939696031545,
              28.65642938762988
            ],
            [
              121.41939628183704,
              28.65642906296185
            ],
            [
              121.41939559707362,
              28.656428748727677
            ],
            [
              121.41939490623142,
              28.656428445021987
            ],
            [
              121.41939420951847,
              28.656428151936243
            ],
            [
              121.41939350714459,
              28.656427869558712
            ],
            [
              121.41939279932129,
              28.65642759797441
            ],
            [
              121.41939208626172,
              28.656427337265146
            ],
            [
              121.41939136818061,
              28.656427087509407
            ],
            [
              121.41939064529421,
              28.656426848782424
            ],
            [
              121.41938991782021,
              28.656426621156065
            ],
            [
              121.41938918597768,
              28.656426404698898
            ],
            [
              121.41938844998701,
              28.6564261994761
            ],
            [
              121.41938771006983,
              28.65642600554947
            ],
            [
              121.41938696644897,
              28.656425822977432
            ],
            [
              121.41938621934837,
              28.656425651814917
            ],
            [
              121.41938546899299,
              28.656425492113502
            ],
            [
              121.4193847156088,
              28.65642534392128
            ],
            [
              121.41938395942269,
              28.656425207282865
            ],
            [
              121.41938320066237,
              28.6564250822394
            ],
            [
              121.41938243955632,
              28.65642496882857
            ],
            [
              121.41938167633376,
              28.65642486708451
            ],
            [
              121.41938091122452,
              28.65642477703784
            ],
            [
              121.419380144459,
              28.656424698715707
            ],
            [
              121.41937937626813,
              28.65642463214168
            ],
            [
              121.4193786068832,
              28.656424577335805
            ],
            [
              121.41937783653594,
              28.656424534314613
            ],
            [
              121.41937706545832,
              28.65642450309103
            ],
            [
              121.41937629388255,
              28.656424483674463
            ],
            [
              121.41937552204097,
              28.656424476070768
            ],
            [
              121.41937475016601,
              28.656424480282237
            ],
            [
              121.41937397849014,
              28.656424496307586
            ],
            [
              121.41937320724573,
              28.656424524142007
            ],
            [
              121.41936225092279,
              28.656426631245573
            ],
            [
              121.41935133720517,
              28.656428903876094
            ],
            [
              121.4193404693068,
              28.656431341364325
            ],
            [
              121.41932965042811,
              28.656433942992432
            ],
            [
              121.4193188837551,
              28.656436707994292
            ],
            [
              121.41930817245839,
              28.656439635555646
            ],
            [
              121.4192975196923,
              28.65644272481438
            ],
            [
              121.4192869285939,
              28.65644597486074
            ],
            [
              121.41927640228214,
              28.656449384737638
            ],
            [
              121.41926594385684,
              28.656452953440922
            ],
            [
              121.41925555639787,
              28.656456679919653
            ],
            [
              121.41924524296418,
              28.65646056307644
            ],
            [
              121.41923500659293,
              28.656464601767745
            ],
            [
              121.41922485029859,
              28.656468794804223
            ],
            [
              121.41921477707204,
              28.656473140951103
            ],
            [
              121.4192047898797,
              28.656477638928507
            ],
            [
              121.41919489166267,
              28.65648228741184
            ],
            [
              121.41918508533584,
              28.656487085032186
            ],
            [
              121.41917537378703,
              28.65649203037673
            ],
            [
              121.41916575987617,
              28.656497121989126
            ],
            [
              121.41915624643441,
              28.656502358369973
            ],
            [
              121.41914683626335,
              28.656507737977236
            ],
            [
              121.41913753213416,
              28.656513259226685
            ],
            [
              121.41913292318459,
              28.65651597585648
            ],
            [
              121.4191283677039,
              28.65651876177209
            ],
            [
              121.41912386703068,
              28.65652161615491
            ],
            [
              121.41911942248736,
              28.65652453816622
            ],
            [
              121.4191150353799,
              28.65652752694743
            ],
            [
              121.41911070699744,
              28.656530581620316
            ],
            [
              121.41910643861179,
              28.65653370128732
            ],
            [
              121.41910223147715,
              28.65653688503176
            ],
            [
              121.41909808682975,
              28.656540131918142
            ],
            [
              121.41909400588743,
              28.656543440992436
            ],
            [
              121.41908998984934,
              28.6565468112823
            ],
            [
              121.41908603989552,
              28.656550241797405
            ],
            [
              121.41908215718662,
              28.656553731529765
            ],
            [
              121.41907834286353,
              28.656557279453963
            ],
            [
              121.41907459804703,
              28.656560884527508
            ],
            [
              121.41907092383751,
              28.65656454569107
            ],
            [
              121.41906732131459,
              28.65656826186888
            ],
            [
              121.4190637915368,
              28.65657203196901
            ],
            [
              121.41906033554135,
              28.656575854883634
            ],
            [
              121.41905695434372,
              28.656579729489465
            ],
            [
              121.41905364893746,
              28.656583654647996
            ],
            [
              121.41905042029381,
              28.65658762920589
            ],
            [
              121.4190472693615,
              28.65659165199525
            ],
            [
              121.41904419706636,
              28.656595721834055
            ],
            [
              121.41904120431116,
              28.656599837526436
            ],
            [
              121.41903829197528,
              28.65660399786304
            ],
            [
              121.41903546091451,
              28.656608201621424
            ],
            [
              121.41903271196071,
              28.656612447566363
            ],
            [
              121.41903004592163,
              28.656616734450253
            ],
            [
              121.41902746358066,
              28.656621061013453
            ],
            [
              121.4190249656966,
              28.65662542598465
            ],
            [
              121.41902255300342,
              28.656629828081254
            ],
            [
              121.41902022621007,
              28.65663426600977
            ],
            [
              121.41901798600027,
              28.6566387384662
            ],
            [
              121.41901583303228,
              28.656643244136344
            ],
            [
              121.41901376793871,
              28.656647781696257
            ],
            [
              121.41901179132641,
              28.65665234981268
            ],
            [
              121.41900990377617,
              28.6566569471433
            ],
            [
              121.41900810584264,
              28.65666157233728
            ],
            [
              121.41900639805411,
              28.656666224035533
            ],
            [
              121.41900478091243,
              28.65667090087124
            ],
            [
              121.41900325489277,
              28.656675601470173
            ],
            [
              121.41900182044357,
              28.656680324451145
            ],
            [
              121.4190004779863,
              28.656685068426327
            ],
            [
              121.41899922791545,
              28.65668983200179
            ],
            [
              121.41899807059836,
              28.656694613777805
            ],
            [
              121.4189970063751,
              28.656699412349326
            ],
            [
              121.41899603555838,
              28.65670422630635
            ],
            [
              121.41899515843348,
              28.656709054234355
            ],
            [
              121.41899437525814,
              28.656713894714724
            ],
            [
              121.41899368626252,
              28.656718746325126
            ],
            [
              121.41899309164906,
              28.65672360763998
            ],
            [
              121.41899259159251,
              28.65672847723088
            ],
            [
              121.41899218623982,
              28.65673335366693
            ],
            [
              121.41899187571009,
              28.656738235515267
            ],
            [
              121.41899166009459,
              28.65674312134139
            ],
            [
              121.41899046188958,
              28.656749882108947
            ],
            [
              121.41898939570117,
              28.656756660055656
            ],
            [
              121.41898846184488,
              28.656763453175987
            ],
            [
              121.41898766059704,
              28.656770259459936
            ],
            [
              121.41898699219476,
              28.656777076893583
            ],
            [
              121.41898645683584,
              28.656783903459736
            ],
            [
              121.41898605467871,
              28.656790737138497
            ],
            [
              121.4189857858424,
              28.656797575907838
            ],
            [
              121.41898565040646,
              28.656804417744237
            ],
            [
              121.41898564841101,
              28.65681126062327
            ],
            [
              121.41898577985665,
              28.656818102520205
            ],
            [
              121.41898604470454,
              28.656824941410598
            ],
            [
              121.41898644287632,
              28.65683177527089
            ],
            [
              121.41898697425418,
              28.65683860207901
            ],
            [
              121.41898763868096,
              28.65684541981497
            ],
            [
              121.41898843596007,
              28.656852226461492
            ],
            [
              121.41898936585562,
              28.65685902000454
            ],
            [
              121.4189904280925,
              28.656865798433973
            ],
            [
              121.41899162235643,
              28.656872559744116
            ],
            [
              121.41899294829406,
              28.6568793019344
            ],
            [
              121.41899440551309,
              28.656886023009825
            ],
            [
              121.41899599358236,
              28.65689272098174
            ],
            [
              121.418997712032,
              28.65689939386825
            ],
            [
              121.41906081206909,
              28.656893016217943
            ],
            [
              121.41905871892521,
              28.656888132115657
            ],
            [
              121.41905672204271,
              28.656883216754544
            ],
            [
              121.41905482202117,
              28.656878271610573
            ],
            [
              121.4190530194311,
              28.656873298168662
            ],
            [
              121.41905131481381,
              28.65686829792222
            ],
            [
              121.41904970868111,
              28.65686327237273
            ],
            [
              121.41904820151528,
              28.65685822302924
            ],
            [
              121.41904679376887,
              28.656853151407955
            ],
            [
              121.41904548586459,
              28.656848059031773
            ],
            [
              121.41904427819516,
              28.656842947429837
            ],
            [
              121.41904317112318,
              28.656837818137024
            ],
            [
              121.4190421649811,
              28.656832672693554
            ],
            [
              121.419041260071,
              28.656827512644483
            ],
            [
              121.41904045666459,
              28.65682233953927
            ],
            [
              121.41903975500311,
              28.656817154931282
            ],
            [
              121.41903915529724,
              28.656811960377343
            ],
            [
              121.41903865772703,
              28.656806757437238
            ],
            [
              121.41903826244189,
              28.656801547673318
            ],
            [
              121.41903796956049,
              28.656796332649936
            ],
            [
              121.41903777917075,
              28.656791113933053
            ],
            [
              121.41903769132985,
              28.656785893089744
            ],
            [
              121.41903770606413,
              28.656780671687695
            ],
            [
              121.41903782336917,
              28.65677545129478
            ],
            [
              121.41903804320971,
              28.656770233478557
            ],
            [
              121.41903836551973,
              28.656765019805828
            ],
            [
              121.41903879020244,
              28.656759811842136
            ],
            [
              121.41903931713028,
              28.65675461115131
            ],
            [
              121.41903994614505,
              28.656749419294993
            ],
            [
              121.41904067705782,
              28.656744237832182
            ],
            [
              121.4190415096491,
              28.65673906831877
            ],
            [
              121.4190424436689,
              28.65673391230701
            ],
            [
              121.41904347883671,
              28.656728771345144
            ],
            [
              121.41904461484168,
              28.656723646976907
            ],
            [
              121.4190458513427,
              28.65671854074099
            ],
            [
              121.41904718796845,
              28.656713454170706
            ],
            [
              121.41904862431755,
              28.65670838879341
            ],
            [
              121.4190501599587,
              28.656703346130143
            ],
            [
              121.41905179443076,
              28.656698327695075
            ],
            [
              121.41905352724292,
              28.656693334995136
            ],
            [
              121.41905535787485,
              28.65668836952951
            ],
            [
              121.41905728577684,
              28.65668343278921
            ],
            [
              121.41905931036997,
              28.656678526256638
            ],
            [
              121.4190614310463,
              28.656673651405082
            ],
            [
              121.41906364716901,
              28.65666880969837
            ],
            [
              121.41906595807265,
              28.656664002590347
            ],
            [
              121.41906836306329,
              28.65665923152445
            ],
            [
              121.41907086141877,
              28.656654497933353
            ],
            [
              121.41907345238887,
              28.65664980323841
            ],
            [
              121.41907613519557,
              28.65664514884934
            ],
            [
              121.41907890903327,
              28.65664053616374
            ],
            [
              121.41908177306907,
              28.6566359665667
            ],
            [
              121.41908472644293,
              28.65663144143034
            ],
            [
              121.41908776826803,
              28.656626962113467
            ],
            [
              121.41909089763095,
              28.656622529961112
            ],
            [
              121.41909411359202,
              28.656618146304137
            ],
            [
              121.41909741518556,
              28.65661381245884
            ],
            [
              121.41910080142017,
              28.65660952972659
            ],
            [
              121.41910427127902,
              28.656605299393377
            ],
            [
              121.4191078237202,
              28.65660112272947
            ],
            [
              121.41911145767699,
              28.656597000989024
            ],
            [
              121.41911517205818,
              28.656592935409677
            ],
            [
              121.41911896574844,
              28.65658892721224
            ],
            [
              121.4191228376086,
              28.656584977600282
            ],
            [
              121.41912678647601,
              28.656581087759783
            ],
            [
              121.41913081116495,
              28.65657725885873
            ],
            [
              121.41913491046687,
              28.656573492046874
            ],
            [
              121.41913908315085,
              28.656569788455307
            ],
            [
              121.41914332796392,
              28.656566149196113
            ],
            [
              121.41914764363148,
              28.656562575362074
            ],
            [
              121.41915202885761,
              28.656559068026315
            ],
            [
              121.41915648232555,
              28.656555628242025
            ],
            [
              121.41916863824851,
              28.656548962774792
            ],
            [
              121.41918092210112,
              28.656542482354133
            ],
            [
              121.41919333026321,
              28.656536188889888
            ],
            [
              121.41920585907798,
              28.656530084236817
            ],
            [
              121.41921850485305,
              28.65652417019399
            ],
            [
              121.41923126386158,
              28.65651844850432
            ],
            [
              121.41924413234337,
              28.656512920854073
            ],
            [
              121.41925710650597,
              28.656507588872287
            ],
            [
              121.41927018252574,
              28.656502454130326
            ],
            [
              121.41928335654906,
              28.656497518141467
            ],
            [
              121.41929662469344,
              28.65649278236038
            ],
            [
              121.41930998304865,
              28.656488248182757
            ],
            [
              121.41932342767782,
              28.656483916944847
            ],
            [
              121.41933695461873,
              28.656479789923104
            ],
            [
              121.41935055988485,
              28.656475868333796
            ],
            [
              121.4193642394666,
              28.656472153332665
            ],
            [
              121.4193779893325,
              28.65646864601454
            ],
            [
              121.41939180543034,
              28.65646534741308
            ],
            [
              121.41940568368838,
              28.656462258500405
            ],
            [
              121.41941962001661,
              28.65645938018684
            ]
          ]
        ]
      }
    },
    {
      "type": "Feature",
      "id": 11,
      "properties": {
        "fid": 11,
        "sidewalk_id": null,
        "material": null,
        "source": null,
        "id": "SWD-011",
        "type": "sidewalk"
      },
      "geometry": {
        "type": "Polygon",
        "coordinates": [
          [
            [
              121.41869334957833,
              28.657013610780066
            ],
            [
              121.4186307879249,
              28.656774601365683
            ],
            [
              121.41862857344684,
              28.656770439821923
            ],
            [
              121.41862627750825,
              28.656766312767246
            ],
            [
              121.41862390079923,
              28.65676222144215
            ],
            [
              121.4186214440342,
              28.65675816707642
            ],
            [
              121.4186189079516,
              28.656754150888702
            ],
            [
              121.41861629331375,
              28.65675017408617
            ],
            [
              121.41861360090655,
              28.656746237864187
            ],
            [
              121.41861083153931,
              28.656742343405874
            ],
            [
              121.41860798604442,
              28.656738491881853
            ],
            [
              121.41860506527722,
              28.656734684449773
            ],
            [
              121.41860207011561,
              28.6567309222541
            ],
            [
              121.4185990014599,
              28.656727206425646
            ],
            [
              121.41859586023244,
              28.656723538081323
            ],
            [
              121.41859264737745,
              28.65671991832375
            ],
            [
              121.41858936386066,
              28.656716348240952
            ],
            [
              121.418586010669,
              28.65671282890602
            ],
            [
              121.41858258881041,
              28.65670936137678
            ],
            [
              121.4185790993134,
              28.656705946695507
            ],
            [
              121.41857554322688,
              28.656702585888578
            ],
            [
              121.41857192161972,
              28.656699279966176
            ],
            [
              121.41856823558048,
              28.656696029921992
            ],
            [
              121.41856448621715,
              28.656692836732912
            ],
            [
              121.41856067465669,
              28.656689701358747
            ],
            [
              121.41855680204479,
              28.656686624741933
            ],
            [
              121.41855286954548,
              28.65668360780721
            ],
            [
              121.41854887834077,
              28.656680651461418
            ],
            [
              121.41854482963035,
              28.65667775659316
            ],
            [
              121.41854072463117,
              28.65667492407259
            ],
            [
              121.41853656457711,
              28.656672154751078
            ],
            [
              121.4185323507186,
              28.656669449461027
            ],
            [
              121.41852808432225,
              28.656666809015604
            ],
            [
              121.41852376667043,
              28.656664234208446
            ],
            [
              121.41851939906094,
              28.656661725813496
            ],
            [
              121.41851498280658,
              28.656659284584723
            ],
            [
              121.41851051923481,
              28.656656911255894
            ],
            [
              121.41850600968726,
              28.656654606540396
            ],
            [
              121.41850145551942,
              28.65665237113097
            ],
            [
              121.41849685810017,
              28.656650205699513
            ],
            [
              121.41849221881138,
              28.656648110896935
            ],
            [
              121.41848753904755,
              28.656646087352872
            ],
            [
              121.41848282021529,
              28.656644135675545
            ],
            [
              121.41847806373298,
              28.656642256451608
            ],
            [
              121.41847327103034,
              28.656640450245888
            ],
            [
              121.41846844354792,
              28.65663871760132
            ],
            [
              121.41846358273679,
              28.65663705903868
            ],
            [
              121.41845869005797,
              28.65663547505649
            ],
            [
              121.41845376698213,
              28.656633966130862
            ],
            [
              121.41844881498899,
              28.656632532715353
            ],
            [
              121.41844383556705,
              28.656631175240825
            ],
            [
              121.418438830213,
              28.656629894115262
            ],
            [
              121.41843380043133,
              28.65662868972381
            ],
            [
              121.4184287477339,
              28.656627562428415
            ],
            [
              121.41842367363944,
              28.656626512567946
            ],
            [
              121.41841857967307,
              28.656625540457973
            ],
            [
              121.41841346736598,
              28.656624646390675
            ],
            [
              121.41840833825478,
              28.656623830634803
            ],
            [
              121.41840319388118,
              28.65662309343554
            ],
            [
              121.41839803579145,
              28.656622435014484
            ],
            [
              121.418392865536,
              28.65662185556953
            ],
            [
              121.41838768466891,
              28.656621355274844
            ],
            [
              121.41838249474743,
              28.656620934280824
            ],
            [
              121.41837729733152,
              28.656620592713995
            ],
            [
              121.41837209398342,
              28.656620330677015
            ],
            [
              121.41836688626712,
              28.656620148248667
            ],
            [
              121.41836167574796,
              28.656620045483763
            ],
            [
              121.41835646399211,
              28.656620022413215
            ],
            [
              121.4183512525661,
              28.65662007904394
            ],
            [
              121.41808592877854,
              28.656661951712266
            ],
            [
              121.41810275081411,
              28.656711992199405
            ],
            [
              121.41833166943212,
              28.6566661925869
            ],
            [
              121.41833588732803,
              28.65666581699385
            ],
            [
              121.4183401119923,
              28.656665506170135
            ],
            [
              121.41834434214668,
              28.656665260209795
            ],
            [
              121.4183485765113,
              28.656665079187235
            ],
            [
              121.418352813805,
              28.656664963157255
            ],
            [
              121.41835705274572,
              28.65666491215493
            ],
            [
              121.41836129205089,
              28.65666492619571
            ],
            [
              121.41836553043785,
              28.65666500527533
            ],
            [
              121.41836976662424,
              28.656665149369907
            ],
            [
              121.41837399932832,
              28.656665358435795
            ],
            [
              121.41837822726946,
              28.656665632409748
            ],
            [
              121.41838244916838,
              28.656665971208895
            ],
            [
              121.41838666374773,
              28.656666374730705
            ],
            [
              121.4183908697323,
              28.656666842853106
            ],
            [
              121.41839506584954,
              28.656667375434438
            ],
            [
              121.41839925082984,
              28.65666797231358
            ],
            [
              121.41840342340696,
              28.656668633309934
            ],
            [
              121.41840758231844,
              28.656669358223503
            ],
            [
              121.41841172630595,
              28.656670146834948
            ],
            [
              121.41841585411565,
              28.65667099890569
            ],
            [
              121.41841996449864,
              28.656671914177892
            ],
            [
              121.41842405621122,
              28.656672892374626
            ],
            [
              121.41842812801542,
              28.656673933199958
            ],
            [
              121.41843217867925,
              28.65667503633893
            ],
            [
              121.41843620697712,
              28.6566762014578
            ],
            [
              121.4184402116902,
              28.656677428204045
            ],
            [
              121.41844419160682,
              28.65667871620649
            ],
            [
              121.41844814552279,
              28.65668006507542
            ],
            [
              121.4184520722418,
              28.65668147440273
            ],
            [
              121.41845597057576,
              28.656682943761997
            ],
            [
              121.41845983934518,
              28.65668447270866
            ],
            [
              121.41846367737949,
              28.6566860607801
            ],
            [
              121.41846748351746,
              28.65668770749583
            ],
            [
              121.41847125660746,
              28.656689412357622
            ],
            [
              121.4184749955079,
              28.65669117484963
            ],
            [
              121.41847869908752,
              28.65669299443859
            ],
            [
              121.41848236622575,
              28.656694870573958
            ],
            [
              121.41848599581303,
              28.6566968026881
            ],
            [
              121.41848958675118,
              28.656698790196394
            ],
            [
              121.4184931379537,
              28.656700832497528
            ],
            [
              121.41849664834614,
              28.65670292897354
            ],
            [
              121.41850011686635,
              28.656705078990143
            ],
            [
              121.4185035424649,
              28.656707281896797
            ],
            [
              121.41850692410532,
              28.656709537026984
            ],
            [
              121.41851026076442,
              28.656711843698382
            ],
            [
              121.41851355143267,
              28.656714201213084
            ],
            [
              121.4185167951144,
              28.65671660885777
            ],
            [
              121.4185199908282,
              28.656719065903996
            ],
            [
              121.41852313760717,
              28.656721571608323
            ],
            [
              121.41852623449917,
              28.656724125212634
            ],
            [
              121.4185292805672,
              28.65672672594429
            ],
            [
              121.41853227488961,
              28.656729373016393
            ],
            [
              121.41853521656046,
              28.656732065628038
            ],
            [
              121.41853810468966,
              28.656734802964536
            ],
            [
              121.41854093840337,
              28.656737584197664
            ],
            [
              121.41854371684421,
              28.65674040848593
            ],
            [
              121.41854643917152,
              28.6567432749748
            ],
            [
              121.41854910456159,
              28.65674618279697
            ],
            [
              121.418551712208,
              28.656749131072623
            ],
            [
              121.41855426132173,
              28.65675211890973
            ],
            [
              121.4185567511315,
              28.656755145404272
            ],
            [
              121.41855918088402,
              28.65675820964054
            ],
            [
              121.41856154984407,
              28.656761310691405
            ],
            [
              121.41856385729491,
              28.656764447618603
            ],
            [
              121.41856610253838,
              28.656767619472998
            ],
            [
              121.41856828489514,
              28.65677082529489
            ],
            [
              121.41857040370488,
              28.65677406411433
            ],
            [
              121.4185724583265,
              28.656777334951332
            ],
            [
              121.41857444813834,
              28.65678063681629
            ],
            [
              121.41857637253838,
              28.656783968710165
            ],
            [
              121.41857823094432,
              28.65678732962483
            ],
            [
              121.41858002279388,
              28.656790718543405
            ],
            [
              121.41858174754489,
              28.656794134440492
            ],
            [
              121.4185834046755,
              28.65679757628261
            ],
            [
              121.41858499368433,
              28.65680104302832
            ],
            [
              121.41858651409056,
              28.65680453362874
            ],
            [
              121.4185879654342,
              28.656808047027724
            ],
            [
              121.41858934727608,
              28.656811582162238
            ],
            [
              121.41859065919812,
              28.656815137962678
            ],
            [
              121.41859190080336,
              28.656818713353175
            ],
            [
              121.41859307171613,
              28.65682230725194
            ],
            [
              121.41859417158213,
              28.656825918571577
            ],
            [
              121.4185952000686,
              28.656829546219452
            ],
            [
              121.41859615686431,
              28.656833189097938
            ],
            [
              121.41859704167979,
              28.65683684610482
            ],
            [
              121.41859785424731,
              28.656840516133634
            ],
            [
              121.418598594321,
              28.656844198073948
            ],
            [
              121.41859926167695,
              28.656847890811726
            ],
            [
              121.41859985611319,
              28.656851593229675
            ],
            [
              121.4186003774499,
              28.656855304207554
            ],
            [
              121.41864449055059,
              28.657021738999923
            ],
            [
              121.41869334957833,
              28.657013610780066
            ]
          ]
        ]
      }
    },
    {
      "type": "Feature",
      "id": 12,
      "properties": {
        "fid": 12,
        "sidewalk_id": null,
        "material": null,
        "source": null,
        "id": "SWD-012",
        "type": "sidewalk"
      },
      "geometry": {
        "type": "Polygon",
        "coordinates": [
          [
            [
              121.41801341457649,
              28.656313428960303
            ],
            [
              121.41823830446265,
              28.656266381154765
            ],
            [
              121.41824304210127,
              28.65626516803712
            ],
            [
              121.41824775522878,
              28.65626388277977
            ],
            [
              121.41825244243343,
              28.656262525767673
            ],
            [
              121.41825710231126,
              28.65626109740731
            ],
            [
              121.41826173346652,
              28.656259598126496
            ],
            [
              121.41826633451204,
              28.65625802837434
            ],
            [
              121.41827090406964,
              28.656256388621014
            ],
            [
              121.41827544077063,
              28.65625467935766
            ],
            [
              121.41827994325611,
              28.656252901096288
            ],
            [
              121.41828441017748,
              28.6562510543695
            ],
            [
              121.41828884019674,
              28.656249139730463
            ],
            [
              121.41829323198696,
              28.656247157752695
            ],
            [
              121.4182975842327,
              28.656245109029815
            ],
            [
              121.41830189563032,
              28.656242994175496
            ],
            [
              121.41830616488842,
              28.65624081382321
            ],
            [
              121.41831039072824,
              28.656238568626023
            ],
            [
              121.41831457188401,
              28.656236259256453
            ],
            [
              121.41831870710335,
              28.656233886406195
            ],
            [
              121.41832279514766,
              28.656231450786027
            ],
            [
              121.41832683479244,
              28.65622895312546
            ],
            [
              121.41833082482768,
              28.65622639417263
            ],
            [
              121.41833476405827,
              28.65622377469402
            ],
            [
              121.4183386513043,
              28.656221095474258
            ],
            [
              121.41834248540141,
              28.656218357315808
            ],
            [
              121.4183462652012,
              28.656215561038866
            ],
            [
              121.41834998957147,
              28.656212707480982
            ],
            [
              121.41835365739671,
              28.65620979749689
            ],
            [
              121.41835726757827,
              28.656206831958226
            ],
            [
              121.41836081903483,
              28.656203811753237
            ],
            [
              121.4183643107026,
              28.65620073778657
            ],
            [
              121.41836774153573,
              28.65619761097898
            ],
            [
              121.4183711105066,
              28.656194432267025
            ],
            [
              121.4183744166061,
              28.65619120260283
            ],
            [
              121.41837765884397,
              28.65618792295377
            ],
            [
              121.41838083624904,
              28.6561845943022
            ],
            [
              121.41838394786964,
              28.65618121764516
            ],
            [
              121.41838699277372,
              28.656177793994036
            ],
            [
              121.41838997004925,
              28.65617432437433
            ],
            [
              121.41839287880445,
              28.656170809825294
            ],
            [
              121.41839571816809,
              28.65616725139963
            ],
            [
              121.41839848728968,
              28.656163650163197
            ],
            [
              121.4184011853398,
              28.656160007194675
            ],
            [
              121.41840381151033,
              28.65615632358523
            ],
            [
              121.41840636501465,
              28.656152600438215
            ],
            [
              121.4184088450879,
              28.656148838868827
            ],
            [
              121.41841125098726,
              28.656145040003747
            ],
            [
              121.41841358199208,
              28.656141204980877
            ],
            [
              121.4184158374042,
              28.656137334948905
            ],
            [
              121.41841801654802,
              28.656133431066994
            ],
            [
              121.41842011877085,
              28.656129494504516
            ],
            [
              121.41842214344302,
              28.65612552644054
            ],
            [
              121.41842408995811,
              28.656121528063654
            ],
            [
              121.41842595773306,
              28.656117500571465
            ],
            [
              121.41842774620845,
              28.65611344517034
            ],
            [
              121.41842945484858,
              28.65610936307498
            ],
            [
              121.41843108314167,
              28.656105255508084
            ],
            [
              121.4184326306,
              28.656101123700005
            ],
            [
              121.41843409676008,
              28.656096968888313
            ],
            [
              121.41843548118277,
              28.656092792317516
            ],
            [
              121.4184367834534,
              28.656088595238614
            ],
            [
              121.4184380031819,
              28.65608437890875
            ],
            [
              121.41843914000296,
              28.656080144590828
            ],
            [
              121.41844019357606,
              28.65607589355316
            ],
            [
              121.41844116358564,
              28.656071627069043
            ],
            [
              121.41844204974116,
              28.656067346416425
            ],
            [
              121.4184428517772,
              28.656063052877474
            ],
            [
              121.41844356945356,
              28.656058747738232
            ],
            [
              121.41844420255525,
              28.656054432288204
            ],
            [
              121.41844475089268,
              28.65605010782
            ],
            [
              121.4184452143016,
              28.656045775628915
            ],
            [
              121.41844559264322,
              28.656041437012565
            ],
            [
              121.41844588580423,
              28.656037093270474
            ],
            [
              121.41844609369683,
              28.65603274570375
            ],
            [
              121.41844621625876,
              28.656028395614598
            ],
            [
              121.41844625345331,
              28.656024044305976
            ],
            [
              121.41844620526936,
              28.656019693081223
            ],
            [
              121.41844607172136,
              28.656015343243684
            ],
            [
              121.4184458528493,
              28.65601099609624
            ],
            [
              121.41844554871878,
              28.65600665294098
            ],
            [
              121.41843720076056,
              28.655919882318802
            ],
            [
              121.41839448394605,
              28.65575351551473
            ],
            [
              121.41833561272294,
              28.655764298327135
            ],
            [
              121.41838453256602,
              28.6559581678917
            ],
            [
              121.41836657162409,
              28.656008959312803
            ],
            [
              121.41819556447373,
              28.656239749202555
            ],
            [
              121.4180074443684,
              28.656280363211014
            ],
            [
              121.41801341457649,
              28.656313428960303
            ]
          ]
        ]
      }
    },
    {
      "type": "Feature",
      "id": 13,
      "properties": {
        "fid": 13,
        "sidewalk_id": null,
        "material": null,
        "source": null,
        "id": "SWD-013",
        "type": "sidewalk"
      },
      "geometry": {
        "type": "Polygon",
        "coordinates": [
          [
            [
              121.4187174876562,
              28.65570700857224
            ],
            [
              121.41872031937329,
              28.655719167885234
            ],
            [
              121.41872338819636,
              28.65573128235432
            ],
            [
              121.41872669321427,
              28.655743348382455
            ],
            [
              121.41873023344577,
              28.655755362386905
            ],
            [
              121.41873400783976,
              28.655767320800482
            ],
            [
              121.41873801527562,
              28.655779220072407
            ],
            [
              121.41874225456354,
              28.655791056669543
            ],
            [
              121.41874672444482,
              28.6558028270773
            ],
            [
              121.41875142359235,
              28.655814527800764
            ],
            [
              121.4187563506109,
              28.655826155365695
            ],
            [
              121.41876150403763,
              28.655837706319627
            ],
            [
              121.4187668823424,
              28.655849177232774
            ],
            [
              121.41877248392835,
              28.655860564699154
            ],
            [
              121.4187783071323,
              28.65587186533754
            ],
            [
              121.41878435022528,
              28.655883075792495
            ],
            [
              121.41879061141302,
              28.65589419273537
            ],
            [
              121.41879708883648,
              28.65590521286527
            ],
            [
              121.41880378057242,
              28.655916132910026
            ],
            [
              121.41881068463398,
              28.655926949627222
            ],
            [
              121.41881779897122,
              28.655937659805108
            ],
            [
              121.41882512147178,
              28.65594826026355
            ],
            [
              121.41883264996152,
              28.655958747855006
            ],
            [
              121.41884038220506,
              28.65596911946544
            ],
            [
              121.41884425686013,
              28.65597306427234
            ],
            [
              121.4188482073943,
              28.655976950082888
            ],
            [
              121.41885223265325,
              28.655980775761613
            ],
            [
              121.41885633146077,
              28.65598454019067
            ],
            [
              121.4188605026192,
              28.65598824227007
            ],
            [
              121.4188647449097,
              28.655991880918037
            ],
            [
              121.41886905709269,
              28.655995455071373
            ],
            [
              121.41887343790813,
              28.65599896368568
            ],
            [
              121.41887788607593,
              28.656002405735745
            ],
            [
              121.41888240029635,
              28.65600578021577
            ],
            [
              121.41888697925032,
              28.656009086139733
            ],
            [
              121.41889162159985,
              28.65601232254164
            ],
            [
              121.41889632598844,
              28.656015488475777
            ],
            [
              121.41890109104146,
              28.65601858301706
            ],
            [
              121.41890591536655,
              28.656021605261262
            ],
            [
              121.41891079755402,
              28.656024554325263
            ],
            [
              121.41891573617731,
              28.65602742934735
            ],
            [
              121.41892072979331,
              28.65603022948741
            ],
            [
              121.4189257769429,
              28.65603295392723
            ],
            [
              121.41893087615126,
              28.656035601870734
            ],
            [
              121.41893602592842,
              28.656038172544175
            ],
            [
              121.41894122476957,
              28.656040665196397
            ],
            [
              121.4189464711556,
              28.656043079099053
            ],
            [
              121.41895176355352,
              28.65604541354676
            ],
            [
              121.41895710041685,
              28.656047667857397
            ],
            [
              121.41896248018617,
              28.656049841372248
            ],
            [
              121.41896790128946,
              28.656051933456204
            ],
            [
              121.41897336214268,
              28.656053943497948
            ],
            [
              121.41897886115014,
              28.656055870910134
            ],
            [
              121.418984396705,
              28.65605771512957
            ],
            [
              121.41898996718979,
              28.65605947561737
            ],
            [
              121.41899557097676,
              28.65606115185909
            ],
            [
              121.41900120642848,
              28.65606274336496
            ],
            [
              121.41900687189823,
              28.656064249669907
            ],
            [
              121.41901256573057,
              28.656065670333792
            ],
            [
              121.41901828626172,
              28.65606700494151
            ],
            [
              121.41902403182011,
              28.656068253103044
            ],
            [
              121.4190298007269,
              28.6560694144537
            ],
            [
              121.41903559129638,
              28.656070488654123
            ],
            [
              121.41904140183651,
              28.656071475390444
            ],
            [
              121.41904723064943,
              28.6560723743743
            ],
            [
              121.41905307603194,
              28.65607318534302
            ],
            [
              121.41905893627602,
              28.65607390805964
            ],
            [
              121.41906480966925,
              28.65607454231297
            ],
            [
              121.41907069449542,
              28.656075087917696
            ],
            [
              121.41907658903494,
              28.656075544714366
            ],
            [
              121.41908126833044,
              28.656077211499472
            ],
            [
              121.41908597960226,
              28.65607880666262
            ],
            [
              121.41909072144152,
              28.65608032972678
            ],
            [
              121.41909549243022,
              28.656081780236505
            ],
            [
              121.41910029114162,
              28.656083157758026
            ],
            [
              121.4191051161407,
              28.65608446187939
            ],
            [
              121.4191099659846,
              28.656085692210617
            ],
            [
              121.419114839223,
              28.656086848383787
            ],
            [
              121.41911973439858,
              28.656087930053165
            ],
            [
              121.4191246500475,
              28.656088936895273
            ],
            [
              121.41912958469975,
              28.65608986860902
            ],
            [
              121.41913453687967,
              28.656090724915785
            ],
            [
              121.41913950510634,
              28.656091505559502
            ],
            [
              121.41914448789407,
              28.65609221030672
            ],
            [
              121.41914948375276,
              28.656092838946687
            ],
            [
              121.41915449118845,
              28.65609339129141
            ],
            [
              121.41915950870371,
              28.65609386717573
            ],
            [
              121.41916453479809,
              28.656094266457316
            ],
            [
              121.41916956796854,
              28.656094589016774
            ],
            [
              121.41917460670997,
              28.656094834757656
            ],
            [
              121.41917964951556,
              28.656095003606453
            ],
            [
              121.41918469487729,
              28.656095095512676
            ],
            [
              121.41918974128639,
              28.65609511044886
            ],
            [
              121.41919478723376,
              28.656095048410524
            ],
            [
              121.41919983121046,
              28.656094909416215
            ],
            [
              121.4192048717081,
              28.656094693507498
            ],
            [
              121.4192099072194,
              28.656094400748966
            ],
            [
              121.41921493623848,
              28.65609403122813
            ],
            [
              121.41921995726146,
              28.656093585055505
            ],
            [
              121.41922496878685,
              28.6560930623645
            ],
            [
              121.41922996931598,
              28.656092463311467
            ],
            [
              121.41923495735348,
              28.65609178807551
            ],
            [
              121.41923993140772,
              28.65609103685855
            ],
            [
              121.41924488999123,
              28.656090209885246
            ],
            [
              121.41924983162122,
              28.656089307402905
            ],
            [
              121.41925475481987,
              28.656088329681396
            ],
            [
              121.41925965811498,
              28.656087277013103
            ],
            [
              121.41926454004025,
              28.65608614971281
            ],
            [
              121.41926939913576,
              28.65608494811765
            ],
            [
              121.41927423394844,
              28.656083672586917
            ],
            [
              121.41927904303247,
              28.65608232350208
            ],
            [
              121.41928382494974,
              28.65608090126656
            ],
            [
              121.41928857827025,
              28.65607940630567
            ],
            [
              121.41929330157257,
              28.656077839066437
            ],
            [
              121.41929799344419,
              28.656076200017587
            ],
            [
              121.41930265248207,
              28.65607448964922
            ],
            [
              121.4193035274552,
              28.656074516534257
            ],
            [
              121.41930440282685,
              28.65607452995312
            ],
            [
              121.41930527833068,
              28.656074529901733
            ],
            [
              121.4193061537003,
              28.656074516380116
            ],
            [
              121.41930702866937,
              28.656074489392363
            ],
            [
              121.41930790297162,
              28.656074448946715
            ],
            [
              121.41930877634107,
              28.65607439505545
            ],
            [
              121.41930964851194,
              28.65607432773499
            ],
            [
              121.41931051921888,
              28.65607424700579
            ],
            [
              121.41931138819695,
              28.656074152892447
            ],
            [
              121.41931225518172,
              28.656074045423583
            ],
            [
              121.41931311990943,
              28.6560739246319
            ],
            [
              121.41931398211693,
              28.656073790554135
            ],
            [
              121.41931484154189,
              28.656073643231096
            ],
            [
              121.41931569792281,
              28.65607348270762
            ],
            [
              121.41931655099913,
              28.656073309032532
            ],
            [
              121.41931740051125,
              28.6560731222587
            ],
            [
              121.41931824620069,
              28.656072922442924
            ],
            [
              121.41931908781015,
              28.65607270964603
            ],
            [
              121.41931992508356,
              28.656072483932743
            ],
            [
              121.41932075776612,
              28.656072245371767
            ],
            [
              121.4193215856045,
              28.65607199403566
            ],
            [
              121.41932240834679,
              28.65607173000092
            ],
            [
              121.41932322574266,
              28.656071453347884
            ],
            [
              121.41932403754342,
              28.656071164160725
            ],
            [
              121.41932484350201,
              28.65607086252743
            ],
            [
              121.41932564337326,
              28.656070548539777
            ],
            [
              121.41932643691374,
              28.656070222293323
            ],
            [
              121.41932722388202,
              28.656069883887312
            ],
            [
              121.41932800403863,
              28.656069533424727
            ],
            [
              121.41932877714622,
              28.65606917101219
            ],
            [
              121.41932954296954,
              28.656068796760007
            ],
            [
              121.41933030127555,
              28.656068410781995
            ],
            [
              121.41933105183354,
              28.65606801319566
            ],
            [
              121.41933179441513,
              28.656067604121937
            ],
            [
              121.41933252879437,
              28.656067183685316
            ],
            [
              121.41933325474783,
              28.656066752013697
            ],
            [
              121.41933397205457,
              28.656066309238465
            ],
            [
              121.41933468049639,
              28.65606585549431
            ],
            [
              121.41933537985769,
              28.656065390919323
            ],
            [
              121.41933606992569,
              28.65606491565483
            ],
            [
              121.41933675049043,
              28.656064429845465
            ],
            [
              121.4193374213448,
              28.65606393363905
            ],
            [
              121.41933808228472,
              28.65606342718655
            ],
            [
              121.41933873310906,
              28.65606291064207
            ],
            [
              121.41933937361979,
              28.656062384162787
            ],
            [
              121.41934000362203,
              28.656061847908894
            ],
            [
              121.41934062292407,
              28.656061302043554
            ],
            [
              121.41934123133748,
              28.656060746732866
            ],
            [
              121.41934182867716,
              28.65606018214578
            ],
            [
              121.41934241476132,
              28.656059608454104
            ],
            [
              121.41934298941166,
              28.656059025832384
            ],
            [
              121.41934355245331,
              28.656058434457908
            ],
            [
              121.41934410371495,
              28.6560578345106
            ],
            [
              121.41934464302886,
              28.656057226173015
            ],
            [
              121.41934517023094,
              28.656056609630262
            ],
            [
              121.41934568516078,
              28.656055985069937
            ],
            [
              121.41934618766167,
              28.656055352682063
            ],
            [
              121.41934667758076,
              28.65605471265907
            ],
            [
              121.41934715476894,
              28.656054065195683
            ],
            [
              121.41934761908104,
              28.656053410488934
            ],
            [
              121.41934807037578,
              28.65605274873802
            ],
            [
              121.41934850851582,
              28.656052080144303
            ],
            [
              121.41934893336787,
              28.656051404911196
            ],
            [
              121.41934934480265,
              28.656050723244167
            ],
            [
              121.41934974269499,
              28.656050035350642
            ],
            [
              121.4193501269238,
              28.65604934143991
            ],
            [
              121.41935049737216,
              28.656048641723114
            ],
            [
              121.4193508539274,
              28.656047936413163
            ],
            [
              121.41935119648097,
              28.656047225724656
            ],
            [
              121.41935152492869,
              28.65604650987385
            ],
            [
              121.41935183917059,
              28.656045789078547
            ],
            [
              121.41935213911107,
              28.656045063558064
            ],
            [
              121.41935242465887,
              28.656044333533178
            ],
            [
              121.41935269572708,
              28.65604359922599
            ],
            [
              121.41935295223327,
              28.656042860859937
            ],
            [
              121.41935319409934,
              28.65604211865969
            ],
            [
              121.41935342125173,
              28.6560413728511
            ],
            [
              121.41935363362131,
              28.656040623661053
            ],
            [
              121.41935383114347,
              28.65603987131753
            ],
            [
              121.41935401375811,
              28.656039116049456
            ],
            [
              121.41935418140964,
              28.656038358086622
            ],
            [
              121.4193543340471,
              28.656037597659672
            ],
            [
              121.419354471624,
              28.65603683499997
            ],
            [
              121.4193545940985,
              28.656036070339574
            ],
            [
              121.41935470143332,
              28.656035303911175
            ],
            [
              121.41935479359583,
              28.656034535947924
            ],
            [
              121.41935487055797,
              28.656033766683546
            ],
            [
              121.4193549322963,
              28.65603299635209
            ],
            [
              121.41935497879209,
              28.65603222518791
            ],
            [
              121.41935501003113,
              28.656031453425708
            ],
            [
              121.41935502600396,
              28.656030681300276
            ],
            [
              121.4193550267057,
              28.656029909046563
            ],
            [
              121.41935501213615,
              28.656029136899537
            ],
            [
              121.41935498229974,
              28.656028365094148
            ],
            [
              121.41935493720554,
              28.656027593865225
            ],
            [
              121.41935487686727,
              28.656026823447448
            ],
            [
              121.4193548013033,
              28.656026054075234
            ],
            [
              121.41935471053662,
              28.656025285982658
            ],
            [
              121.41935460459484,
              28.656024519403463
            ],
            [
              121.41935448351022,
              28.65602375457087
            ],
            [
              121.41935434731957,
              28.65602299171761
            ],
            [
              121.41935419606435,
              28.656022231075795
            ],
            [
              121.41935402979057,
              28.65602147287687
            ],
            [
              121.41935384854884,
              28.656020717351545
            ],
            [
              121.41935365239429,
              28.656019964729683
            ],
            [
              121.41935344138662,
              28.656019215240306
            ],
            [
              121.41935321559004,
              28.656018469111444
            ],
            [
              121.41918151669364,
              28.656050701317604
            ],
            [
              121.41904060951929,
              28.656027621677612
            ],
            [
              121.41903666071312,
              28.65602727753725
            ],
            [
              121.41903271928238,
              28.65602687292648
            ],
            [
              121.41902878641716,
              28.656026407967474
            ],
            [
              121.41902486330497,
              28.656025882800627
            ],
            [
              121.41902095113039,
              28.656025297584534
            ],
            [
              121.41901705107466,
              28.656024652495866
            ],
            [
              121.41901316431542,
              28.656023947729423
            ],
            [
              121.41900929202623,
              28.656023183498004
            ],
            [
              121.41900543537632,
              28.656022360032352
            ],
            [
              121.41900159553019,
              28.656021477581135
            ],
            [
              121.41899777364728,
              28.656020536410782
            ],
            [
              121.41899397088156,
              28.65601953680549
            ],
            [
              121.41899018838129,
              28.65601847906709
            ],
            [
              121.41898642728854,
              28.656017363514938
            ],
            [
              121.418982688739,
              28.65601619048589
            ],
            [
              121.41897897386148,
              28.65601496033413
            ],
            [
              121.4189752837777,
              28.65601367343111
            ],
            [
              121.41897161960182,
              28.656012330165392
            ],
            [
              121.41896798244025,
              28.656010930942564
            ],
            [
              121.4189643733912,
              28.656009476185133
            ],
            [
              121.41896079354443,
              28.656007966332343
            ],
            [
              121.41895724398083,
              28.656006401840102
            ],
            [
              121.41895372577218,
              28.656004783180794
            ],
            [
              121.4189502399808,
              28.65600311084315
            ],
            [
              121.4189467876592,
              28.656001385332157
            ],
            [
              121.41894336984979,
              28.6559996071688
            ],
            [
              121.41893998758457,
              28.655997776889993
            ],
            [
              121.41893664188477,
              28.65599589504839
            ],
            [
              121.41893333376063,
              28.65599396221221
            ],
            [
              121.41893006421103,
              28.655991978965034
            ],
            [
              121.41892683422317,
              28.65598994590573
            ],
            [
              121.41892364477235,
              28.655987863648143
            ],
            [
              121.41892049682158,
              28.655985732821026
            ],
            [
              121.4189173913214,
              28.655983554067756
            ],
            [
              121.41891432920947,
              28.655981328046206
            ],
            [
              121.4189113114104,
              28.655979055428507
            ],
            [
              121.41890833883538,
              28.655976736900865
            ],
            [
              121.41890541238197,
              28.655974373163364
            ],
            [
              121.41890253293381,
              28.6559719649297
            ],
            [
              121.4188997013603,
              28.65596951292705
            ],
            [
              121.41889691851645,
              28.655967017895772
            ],
            [
              121.41889418524251,
              28.65596448058923
            ],
            [
              121.41889150236376,
              28.655961901773555
            ],
            [
              121.4188888706903,
              28.655959282227418
            ],
            [
              121.41888629101673,
              28.655956622741755
            ],
            [
              121.41888376412199,
              28.655953924119597
            ],
            [
              121.41888129076904,
              28.655951187175784
            ],
            [
              121.41887887170469,
              28.655948412736713
            ],
            [
              121.41887650765938,
              28.65594560164013
            ],
            [
              121.41887419934689,
              28.65594275473482
            ],
            [
              121.41887194746423,
              28.655939872880392
            ],
            [
              121.41886975269131,
              28.65593695694701
            ],
            [
              121.41886761569084,
              28.655934007815123
            ],
            [
              121.41886553710809,
              28.655931026375217
            ],
            [
              121.41886351757064,
              28.6559280135275
            ],
            [
              121.41886155768829,
              28.65592497018171
            ],
            [
              121.41885965805281,
              28.65592189725676
            ],
            [
              121.41885317820399,
              28.6559121145959
            ],
            [
              121.41884689281954,
              28.65590223371251
            ],
            [
              121.41884080381244,
              28.655892257613946
            ],
            [
              121.41883491303587,
              28.6558821893365
            ],
            [
              121.41882922228268,
              28.65587203194457
            ],
            [
              121.41882373328485,
              28.655861788529663
            ],
            [
              121.41881844771297,
              28.65585146220945
            ],
            [
              121.41881336717566,
              28.65584105612684
            ],
            [
              121.41880849321919,
              28.65583057344902
            ],
            [
              121.41880382732691,
              28.655820017366512
            ],
            [
              121.41879937091888,
              28.655809391092127
            ],
            [
              121.41879512535138,
              28.655798697860092
            ],
            [
              121.41879109191653,
              28.65578794092498
            ],
            [
              121.41878727184185,
              28.655777123560757
            ],
            [
              121.41878366628997,
              28.655766249059784
            ],
            [
              121.41878027635819,
              28.655755320731803
            ],
            [
              121.41877710307821,
              28.65574434190297
            ],
            [
              121.41877414741577,
              28.65573331591475
            ],
            [
              121.41877141027038,
              28.655722246123016
            ],
            [
              121.41876889247504,
              28.65571113589695
            ],
            [
              121.418766594796,
              28.65569998861803
            ],
            [
              121.4187174876562,
              28.65570700857224
            ]
          ]
        ]
      }
    },
    {
      "type": "Feature",
      "id": 14,
      "properties": {
        "fid": 14,
        "sidewalk_id": null,
        "material": null,
        "source": null,
        "id": "SWD-014",
        "type": "sidewalk"
      },
      "geometry": {
        "type": "Polygon",
        "coordinates": [
          [
            [
              121.41945032278066,
              28.656044683291608
            ],
            [
              121.41945030871693,
              28.65604336933598
            ],
            [
              121.41945032042588,
              28.656042055362384
            ],
            [
              121.41945035790403,
              28.656040741764098
            ],
            [
              121.41945042114014,
              28.656039428934317
            ],
            [
              121.4194505101153,
              28.656038117265965
            ],
            [
              121.41945062480285,
              28.65603680715166
            ],
            [
              121.41945076516848,
              28.65603549898353
            ],
            [
              121.41945093117018,
              28.65603419315311
            ],
            [
              121.41945112275826,
              28.65603289005127
            ],
            [
              121.41945133987535,
              28.656031590068043
            ],
            [
              121.4194515824565,
              28.65603029359251
            ],
            [
              121.4194518504291,
              28.656029001012755
            ],
            [
              121.4194521437129,
              28.65602771271562
            ],
            [
              121.41945246222016,
              28.65602642908674
            ],
            [
              121.41945280585553,
              28.656025150510324
            ],
            [
              121.41945317451615,
              28.656023877369027
            ],
            [
              121.41945356809167,
              28.656022610043955
            ],
            [
              121.4194539864643,
              28.6560213489144
            ],
            [
              121.41945442950883,
              28.656020094357864
            ],
            [
              121.41945489709262,
              28.656018846749845
            ],
            [
              121.41945538907572,
              28.656017606463752
            ],
            [
              121.4194559053109,
              28.65601637387082
            ],
            [
              121.4194564456436,
              28.65601514933998
            ],
            [
              121.41945700991214,
              28.65601393323776
            ],
            [
              121.41945759794758,
              28.656012725928147
            ],
            [
              121.41945820957395,
              28.656011527772492
            ],
            [
              121.41945884460817,
              28.656010339129427
            ],
            [
              121.41945950286016,
              28.65600916035473
            ],
            [
              121.4194601841329,
              28.656007991801214
            ],
            [
              121.41946088822249,
              28.65600683381865
            ],
            [
              121.41946161491816,
              28.656005686753627
            ],
            [
              121.41946236400243,
              28.65600455094948
            ],
            [
              121.41946313525106,
              28.65600342674616
            ],
            [
              121.41946392843323,
              28.65600231448018
            ],
            [
              121.41946474331152,
              28.656001214484412
            ],
            [
              121.41946557964202,
              28.656000127088134
            ],
            [
              121.41946643717442,
              28.655999052616806
            ],
            [
              121.41946731565206,
              28.655997991392013
            ],
            [
              121.41946821481196,
              28.655996943731417
            ],
            [
              121.41946913438503,
              28.655995909948572
            ],
            [
              121.41947007409601,
              28.65599489035293
            ],
            [
              121.41947103366364,
              28.655993885249625
            ],
            [
              121.41947201280071,
              28.655992894939548
            ],
            [
              121.41947301121415,
              28.65599191971908
            ],
            [
              121.41947402860514,
              28.6559909598801
            ],
            [
              121.41947506466913,
              28.655990015709932
            ],
            [
              121.41947611909603,
              28.655989087491164
            ],
            [
              121.41947719157024,
              28.655988175501626
            ],
            [
              121.41959810554955,
              28.655963231911812
            ],
            [
              121.41960416895692,
              28.65601363017916
            ],
            [
              121.41945032278066,
              28.656044683291608
            ]
          ]
        ]
      }
    }
  ]
}